X,Y,Store_Name,Address,Address_Line__2,City,State,Zip5,County,Longitude,Latitude,ObjectId
-79.812576,40.502525,K & G Supermart,1043 Hamil Rd,,Verona,PA,15147,ALLEGHENY,-79.812576,40.502525,350
-79.789886,40.499241,Family Dollar 8406,1122 Milltown Rd,,Verona,PA,15147,ALLEGHENY,-79.789886,40.499241,351
-79.789368,40.498741,Dollar General 22867,1108 Milltown Rd,,Verona,PA,15147,ALLEGHENY,-79.789368,40.498741,352
-79.818901,40.484097,7-Eleven Store 36205,6106 Saltsburg Rd,,Verona,PA,15147,ALLEGHENY,-79.818901,40.484097,353
-79.814064,40.521042,7-Eleven 40288,2000 Eastern Ave,,Verona,PA,15147,ALLEGHENY,-79.814064,40.521042,354
-79.789978,40.498421,COMMUNITY SUPER MKT INC,1117 Milltown Rd,,Verona,PA,15147,ALLEGHENY,-79.789978,40.498421,355
-79.856926,40.485207,Verona Shell,4901 Allegheny River Blvd,,Verona,PA,15147,ALLEGHENY,-79.856926,40.485207,356
-79.843262,40.50045,Dollar Tree 4019,100 Allegheny River Blvd,,Verona,PA,15147,ALLEGHENY,-79.843262,40.50045,357
-79.816048,40.526405,Sheetz 459,2175 Hulton Rd,,Verona,PA,15147,ALLEGHENY,-79.816048,40.526405,358
-79.843269,40.500896,VERONA GIANT EAGLE,200 Allegheny River Blvd,,Verona,PA,15147,ALLEGHENY,-79.843269,40.500896,359
-79.842865,40.506878,Get Go 3476,800 Allegheny River Blvd,,Verona,PA,15147,ALLEGHENY,-79.842865,40.506878,360
-80.034691,40.406754,Rite Aid 10931,2501 Banksville Rd,,Pittsburgh,PA,15216,ALLEGHENY,-80.034691,40.406754,361
-80.038971,40.391376,A-PLUS MINI MART,3100 W Liberty Ave,,Pittsburgh,PA,15216,ALLEGHENY,-80.038971,40.391376,362
-80.024895,40.411846,DOLLAR EAGLE DISCOUNTS,1552 Beechview Ave,,Pittsburgh,PA,15216,ALLEGHENY,-80.024895,40.411846,363
-80.040634,40.404137,La Madina Mediterranean Halal Market,2880 Banksville Rd,,Pittsburgh,PA,15216,ALLEGHENY,-80.040634,40.404137,364
-80.041542,40.403049,Ukani Brothers,2900 Banksville Rd,,Pittsburgh,PA,15216,ALLEGHENY,-80.041542,40.403049,365
-80.043343,40.39978,Rana's Indian Bazaar,3103 Banksville Rd,,Pittsburgh,PA,15216,ALLEGHENY,-80.043343,40.39978,366
-80.035423,40.393684,Steel Vape And Mart Inc,2961 W Liberty Ave,,Pittsburgh,PA,15216,ALLEGHENY,-80.035423,40.393684,367
-80.030479,40.404045,Tim's Corner Market,2130 Broadway Ave,,Pittsburgh,PA,15216,ALLEGHENY,-80.030479,40.404045,368
-80.039886,40.404572,DOLLARTREE 8562,2858 Banksville Rd,,Pittsburgh,PA,15216,ALLEGHENY,-80.039886,40.404572,369
-80.035316,40.394512,Sunshine Market ,2932 W Liberty Ave,,Pittsburgh,PA,15216,ALLEGHENY,-80.035316,40.394512,370
-80.034981,40.395931,Jmart International Market,1435 Potomac Ave,,Pittsburgh,PA,15216,ALLEGHENY,-80.034981,40.395931,371
-80.02478,40.410118,Las Palmas Iga 2,1616 Broadway Ave,,Pittsburgh,PA,15216,ALLEGHENY,-80.02478,40.410118,372
-80.038597,40.391556,CVS Pharmacy 4144,3075 W Liberty Ave,,Pittsburgh,PA,15216,ALLEGHENY,-80.038597,40.391556,373
-80.046486,40.395996,Dollar General 10277,1695 McFarland Rd,,Pittsburgh,PA,15216,ALLEGHENY,-80.046486,40.395996,374
-80.044708,40.399281,Rite Aid 1094,3210 Banksville Rd,,Pittsburgh,PA,15216,ALLEGHENY,-80.044708,40.399281,375
-79.763626,40.479942,Dollar General 21279,960 Unity Center Rd,,Plum,PA,15239,ALLEGHENY,-79.763626,40.479942,3996
-80.061394,40.492054,Sunoco Bellevue N/A,4528 Ohio River Blvd,,Pittsburgh,PA,15202,ALLEGHENY,-80.061394,40.492054,4550
-80.054855,40.495003,Produce Plus,471 Lincoln Ave,,Bellevue,PA,15202,ALLEGHENY,-80.054855,40.495003,4552
-80.06646,40.495754,Par Mar Store 204,901 Ohio River Blvd,,Pittsburgh,PA,15202,ALLEGHENY,-80.06646,40.495754,4563
-80.017525,40.460091,Quick Stop Of Pittsburgh Inc,1815 N Charles St,,Pittsburgh,PA,15212,ALLEGHENY,-80.017525,40.460091,5432
-80.042328,40.485088,California Mini Mart LLC,3901 California Ave,,Pittsburgh,PA,15212,ALLEGHENY,-80.042328,40.485088,5433
-79.999336,40.453526,Isaly's,537 E Ohio St,,Pittsburgh,PA,15212,ALLEGHENY,-79.999336,40.453526,5434
-80.000679,40.451134,7-eleven Store #40243a 40243A,310 Cedar Ave,,Pittsburgh,PA,15212,ALLEGHENY,-80.000679,40.451134,5435
-80.026886,40.46767,Global Food Market ,1200 Hodgkiss St,,Pittsburgh,PA,15212,ALLEGHENY,-80.026886,40.46767,5436
-79.98336,40.462639,Nilkanth Convenience Corp,1601 Lowrie St,,Pittsburgh,PA,15212,ALLEGHENY,-79.98336,40.462639,5437
-79.985909,40.469845,Dollar General 21679,1930 Spring Garden Ave,,Pittsburgh,PA,15212,ALLEGHENY,-79.985909,40.469845,5438
-80.031197,40.475876,Family Dollar 11692,3210 Brighton Rd,,Pittsburgh,PA,15212,ALLEGHENY,-80.031197,40.475876,5439
-80.007156,40.457172,Saad United Inc,1318 Federal Street,,Pittsburgh,PA,15212,ALLEGHENY,-80.007156,40.457172,5440
-80.001038,40.45145,Giant Eagle 91,318 Cedar Ave,,Pittsburgh,PA,15212,ALLEGHENY,-80.001038,40.45145,5441
-79.928581,40.419895,Nataliya's European Food Market,4370 Murray Ave,,Pittsburgh,PA,15217,ALLEGHENY,-79.928581,40.419895,5862
-80.033112,40.395462,Bp Dormont,2873 W Liberty Ave,,Pittsburgh,PA,15216,ALLEGHENY,-80.033112,40.395462,8834
-80.015732,40.457397,Dollar Tree 5828,1516 Brighton Rd,,Pittsburgh,PA,15212,ALLEGHENY,-80.015732,40.457397,8913
-79.98687,40.462692,Waltmire Pharmacy,1435 Spring Garden Ave,,Pittsburgh,PA,15212,ALLEGHENY,-79.98687,40.462692,8914
-80.031479,40.476002,Hanini Market,3245 Brighton Rd,,Pittsburgh,PA,15212,ALLEGHENY,-80.031479,40.476002,8915
-79.985809,40.464699,Marshall's Ltd.,1520 Spring Garden Ave,,Pittsburgh,PA,15212,ALLEGHENY,-79.985809,40.464699,8916
-79.98597,40.469975,Family Dollar Store 7104,2020 Spring Garden Ave,,Pittsburgh,PA,15212,ALLEGHENY,-79.98597,40.469975,8917
-80.030113,40.469124,New Big Toms Corner Store,1300 Woodland Ave,,Pittsburgh,PA,15212,ALLEGHENY,-80.030113,40.469124,8918
-80.031624,40.476128,Schwartz Supermarket Store,3235 Brighton Rd,,Pittsburgh,PA,15212,ALLEGHENY,-80.031624,40.476128,8919
-80.03569,40.483963,Rite Aid 10929,3730 Brighton Rd,,Pittsburgh,PA,15212,ALLEGHENY,-80.03569,40.483963,8920
-80.026123,40.468269,KUHN'S MARKET,1130 Highwood St,,Pittsburgh,PA,15212,ALLEGHENY,-80.026123,40.468269,8921
-79.982536,40.463951,VICTORIA'S DAIRY,1716 Lowrie St,,Pittsburgh,PA,15212,ALLEGHENY,-79.982536,40.463951,8922
-80.041527,40.48127,Tom Friday's Market,3639 California Ave,,Pittsburgh,PA,15212,ALLEGHENY,-80.041527,40.48127,8923
-80.027168,40.471836,Circle K 4704200,2903 Brighton Rd,,Pittsburgh,PA,15212,ALLEGHENY,-80.027168,40.471836,8924
-79.998924,40.453762,Rite Aid 10928,623 E Ohio St,,Pittsburgh,PA,15212,ALLEGHENY,-79.998924,40.453762,8925
-80.043709,40.489925,Giant Eagle 65,4110 Brighton Rd,,Pittsburgh,PA,15212,ALLEGHENY,-80.043709,40.489925,8926
-79.868225,40.403332,Brooklyn 3 Market Inc,603 Braddock Ave,,Braddock,PA,15104,ALLEGHENY,-79.868225,40.403332,12975
-79.863136,40.399052,Grow Pittsburgh Farm Stands,1000 Braddock Ave,,Braddock,PA,15104,ALLEGHENY,-79.863136,40.399052,12976
-79.859497,40.40078,Miss Dees Market,1116 Bell Ave,,Braddock,PA,15104,ALLEGHENY,-79.859497,40.40078,12977
-79.842468,40.402981,Pizons Llc,1536 Brinton Ave,,Braddock,PA,15104,ALLEGHENY,-79.842468,40.402981,12978
-79.869644,40.403988,Super Mart Braddock,524 Braddock Ave,,Braddock,PA,15104,ALLEGHENY,-79.869644,40.403988,12979
-79.881691,40.414223,Carl's Cafe,337 5th Ave,,Braddock,PA,15104,ALLEGHENY,-79.881691,40.414223,12980
-79.868629,40.403336,Family Dollar Store 6347,401 6th St,,Braddock,PA,15104,ALLEGHENY,-79.868629,40.403336,12981
-79.876472,40.41177,"Super Stop Convenience Store, Inc.",430 Kenmawr Ave,,Rankin,PA,15104,ALLEGHENY,-79.876472,40.41177,12982
-80.056213,40.463562,McKees Rocks Sunoco A-Plus,351 Stanhope St,,Pittsburgh,PA,15204,ALLEGHENY,-80.056213,40.463562,12983
-80.061501,40.453579,United Food Mart,3112 Chartiers Ave,,Pittsburgh,PA,15204,ALLEGHENY,-80.061501,40.453579,12984
-80.053947,40.454086,Family Dollar 11291,2928 Sheraden Blvd,,Pittsburgh,PA,15204,ALLEGHENY,-80.053947,40.454086,12985
-80.054932,40.453438,Sheraden Shoppe N Kitchen,2827 Chartiers Ave,,Pittsburgh,PA,15204,ALLEGHENY,-80.054932,40.453438,12987
-80.054085,40.453259,Sheraden Tobacco Outlet Inc,649 Hillsboro St,,Pittsburgh,PA,15204,ALLEGHENY,-80.054085,40.453259,12988
-80.05442,40.347286,Walgreens 09187,1741 Washington Rd,,Pittsburgh,PA,15241,ALLEGHENY,-80.05442,40.347286,12989
-80.053047,40.347973,APlus 40164H,1710 Washington Rd,,Pittsburgh,PA,15241,ALLEGHENY,-80.053047,40.347973,12990
-80.110641,40.317978,Whole Foods Market 10242,111 Siena Dr,,Upper St Clair,PA,15241,ALLEGHENY,-80.110641,40.317978,12991
-80.065742,40.326485,Kajal Oil And Gas Inc 001,127 McMurray Rd,,Pittsburgh,PA,15241,ALLEGHENY,-80.065742,40.326485,12992
-80.05468,40.347225,CVS Pharmacy 4051,1740 Washington Rd,,Pittsburgh,PA,15241,ALLEGHENY,-80.05468,40.347225,12993
-80.053009,40.341427,Target 2787,201 S Hills Vlg,,Pittsburgh,PA,15241,ALLEGHENY,-80.053009,40.341427,12994
-80.084785,40.362965,CIO Store 13,1980 Painters Run Rd,,Pittsburgh,PA,15241,ALLEGHENY,-80.084785,40.362965,12995
-80.083366,40.362808,CIO Store 14,1909 Painters Run Rd,,Pittsburgh,PA,15241,ALLEGHENY,-80.083366,40.362808,12996
-80.125664,40.32822,7-eleven Store 36135A,850 Boyce Rd,,Bridgeville,PA,15017,ALLEGHENY,-80.125664,40.32822,13731
-80.118401,40.340958,Giant Eagle Mobile Market 1270,3239 Washington Pike,,Bridgeville,PA,15017,ALLEGHENY,-80.118401,40.340958,13732
-80.127457,40.359829,"BJ's Wholesale Club, Inc. 388",4000 Victoria St,,Bridgeville,PA,15017,ALLEGHENY,-80.127457,40.359829,13733
-80.109421,40.364525,7-eleven Store #40169a 40169A,1001 Washington Pike,,Bridgeville,PA,15017,ALLEGHENY,-80.109421,40.364525,13734
-80.098251,40.37608,Sheetz 679,1297 Washington Pike,,Bridgeville,PA,15017,ALLEGHENY,-80.098251,40.37608,13735
-80.110336,40.357914,Gulf Bridgeville,449 Railroad St,,Bridgeville,PA,15017,ALLEGHENY,-80.110336,40.357914,13736
-80.111542,40.348637,Sheetz 677,3109 Washington Pike,,Bridgeville,PA,15017,ALLEGHENY,-80.111542,40.348637,13737
-80.102608,40.368591,Fresh Thyme Farmers Market 451BDG,1155 Washington Pk,Ste 38,Bridgeville,PA,15017,ALLEGHENY,-80.102608,40.368591,13738
-80.119629,40.341564,Giant Eagle 24,3239 Washington Pike,,Bridgeville,PA,15017,ALLEGHENY,-80.119629,40.341564,13739
-80.114853,40.354206,Aldi 81,3013 Washington Pike,,Bridgeville,PA,15017,ALLEGHENY,-80.114853,40.354206,13740
-80.102608,40.368595,Big Lots 1951,1155 Washington Pike,,Bridgeville,PA,15017,ALLEGHENY,-80.102608,40.368595,13741
-80.106277,40.366562,Giant Eagle 641,1025 Washington Pike,,Bridgeville,PA,15017,ALLEGHENY,-80.106277,40.366562,13742
-80.114944,40.353493,GetGo 3641,3029 Washington Pike,,Bridgeville,PA,15017,ALLEGHENY,-80.114944,40.353493,13743
-80.102608,40.368584,Dollar Tree 0203,1155 Washington Pike,Ste 49,Bridgeville,PA,15017,ALLEGHENY,-80.102608,40.368584,13744
-80.110374,40.357666,CoGo's 1322,510 Station Street,,BRIDGEVILLE,PA,15017,ALLEGHENY,-80.110374,40.357666,13745
-80.1138,40.355335,Rite Aid 10892,417 Chartiers St,,Bridgeville,PA,15017,ALLEGHENY,-80.1138,40.355335,13746
-79.759918,40.478172,Pronios Food Services Llc,1055 Unity Center Rd,,Pittsburgh,PA,15239,ALLEGHENY,-79.759918,40.478172,28476
-80.105774,40.448792,Get Go 3650,4900 Steubenville Pike,,Pittsburgh,PA,15205,ALLEGHENY,-80.105774,40.448792,32305
-80.003792,40.441086,Rite Aid 6712,100 Forbes Ave,Ste 100,Pittsburgh,PA,15222,ALLEGHENY,-80.003792,40.441086,32306
-79.985168,40.450336,Sambok Korean Grocery,1735 Penn Ave,,Pittsburgh,PA,15222,ALLEGHENY,-79.985168,40.450336,32314
-79.71122,40.45459,Sheetz 190,2003 Golden Mile Hwy,,Pittsburgh,PA,15239,ALLEGHENY,-79.71122,40.45459,32441
-79.94339,40.408245,Hazelwood Market Of Pittsburgh Inc,5009 2nd Ave,,Pittsburgh,PA,15207,ALLEGHENY,-79.94339,40.408245,32712
-79.997833,40.44141,Just Harvest/Citiparks at City/County Bldg,400 Sixth Street,,Pittsburgh,PA,15222,ALLEGHENY,-79.997833,40.44141,33951
-79.998894,40.442387,Dollar General 22915,610 Wood St,,Pittsburgh,PA,15222,ALLEGHENY,-79.998894,40.442387,33953
-79.999069,40.439213,7-Eleven Store 36160,420 Smithfield St,,Pittsburgh,PA,15222,ALLEGHENY,-79.999069,40.439213,33958
-80.167259,40.454575,Magnet International Market,1850 Park Manor Blvd,,Pittsburgh,PA,15205,ALLEGHENY,-80.167259,40.454575,33961
-79.705376,40.464756,Dollar General 16488,2409 Rte 286,,Plum,PA,15239,ALLEGHENY,-79.705376,40.464756,34751
-79.943855,40.409061,RITE AID 3404,4934 2nd Ave,,Pittsburgh,PA,15207,ALLEGHENY,-79.943855,40.409061,35029
-79.78302,40.541473,Springdale Food Mart,627 Pittsburgh St,,Springdale,PA,15144,ALLEGHENY,-79.78302,40.541473,35419
-79.886345,40.293354,Produce Marketplace,519 Saint Clair Ave,,Clairton,PA,15025,ALLEGHENY,-79.886345,40.293354,35421
-79.816849,40.34753,Dollar Tree 6173,1615 Lincoln Way,,White Oak,PA,15131,ALLEGHENY,-79.816849,40.34753,35691
-79.818016,40.348915,White Oak Mini Mart,1513 Lincoln Way,,White Oak,PA,15131,ALLEGHENY,-79.818016,40.348915,35696
-80.057281,40.496342,Rite Aid 10920,535 Lincoln Ave,,Bellevue,PA,15202,ALLEGHENY,-80.057281,40.496342,36418
-80.060165,40.497795,KUHNS MARKET,661 Lincoln Ave,,Bellevue,PA,15202,ALLEGHENY,-80.060165,40.497795,36422
-79.945076,40.329353,Fresh Thyme Farmers Market 452PLH,665 Clairton Blvd,,Pittsburgh,PA,15236,ALLEGHENY,-79.945076,40.329353,36661
-79.981651,40.442921,Just Harvest - Soko Community Market,1835 Centre Ave,,Pittsburgh,PA,15219,ALLEGHENY,-79.981651,40.442921,37288
-79.898903,40.317894,Exxon,1405 N State St,,Clairton,PA,15025,ALLEGHENY,-79.898903,40.317894,37508
-79.705582,40.462723,HOLIDAY PARK SHOP N SAVE,2362 Golden Mile Hwy,,Pittsburgh,PA,15239,ALLEGHENY,-79.705582,40.462723,37618
-79.988365,40.414303,Candy Safe Supermarket,300 Brownsville Rd,,Pittsburgh,PA,15210,ALLEGHENY,-79.988365,40.414303,39074
-79.945953,40.454723,GETGO 3064,4924 Baum Blvd,,Pittsburgh,PA,15213,ALLEGHENY,-79.945953,40.454723,39188
-79.996964,40.291111,Coen Markets 1237,1237 Brownsville Rd,,South Park,PA,15129,ALLEGHENY,-79.996964,40.291111,39423
-79.786591,40.541203,DOLLAR GENERAL STORE  7672,494 Pittsburgh St,,Springdale,PA,15144,ALLEGHENY,-79.786591,40.541203,39521
-79.751617,40.601742,J & G Corner Store,215 Corbet St,,Tarentum,PA,15084,ALLEGHENY,-79.751617,40.601742,39579
-79.842506,40.364761,Sunoco Duquesne 0363372402,825 Duquesne Blvd,,Duquesne,PA,15110,ALLEGHENY,-79.842506,40.364761,39599
-79.982468,40.438488,Fifth Avenue Food Market Llc,1701 5th Ave,,Pittsburgh,PA,15219,ALLEGHENY,-79.982468,40.438488,39610
-79.825722,40.352627,Maruti Convenience LLC,1100 Fawcett Ave,,White Oak,PA,15131,ALLEGHENY,-79.825722,40.352627,39615
-79.9869,40.393135,Asian Spice & Grocery Store Llc,2104 Brownsville Rd,,Pittsburgh,PA,15210,ALLEGHENY,-79.9869,40.393135,39627
-79.98716,40.3951,Unimart Brownsville Rd,1926 Brownsville Rd,,Pittsburgh,PA,15210,ALLEGHENY,-79.98716,40.3951,39628
-79.98806,40.413956,Huawei Markee,311 Brownsville Rd,,Pittsburgh,PA,15210,ALLEGHENY,-79.98806,40.413956,39629
-79.991592,40.408722,Unimart,748 Brownsville Rd,,Pittsburgh,PA,15210,ALLEGHENY,-79.991592,40.408722,39631
-79.994438,40.298351,Dollar General 15784,2301 Brownsville Rd,,South Park,PA,15129,ALLEGHENY,-79.994438,40.298351,40102
-79.80262,40.568443,Dollar Tree 4222,1020 Village Center Dr,,Tarentum,PA,15084,ALLEGHENY,-79.80262,40.568443,40362
-79.941986,40.407532,Fishes And Loaves Cooperative Ministries,131 E Elizabeth St,,Pittsburgh,PA,15207,ALLEGHENY,-79.941986,40.407532,42298
-80.001625,40.439518,4TH E wood Market,245 4th Ave,,Pittsburgh,PA,15222,ALLEGHENY,-80.001625,40.439518,42615
-79.951897,40.451958,DOLLAR PLUS,4601 Centre Ave,,Pittsburgh,PA,15213,ALLEGHENY,-79.951897,40.451958,42690
-80.065514,40.434875,Shubhshiva Petro Inc # 2 0002,113 Noble Ave,,Pittsburgh,PA,15205,ALLEGHENY,-80.065514,40.434875,42691
-80.068947,40.439804,Family Dollar Store 7618,1201 Foster Ave,,Pittsburgh,PA,15205,ALLEGHENY,-80.068947,40.439804,42696
-80.066765,40.434078,Dollar General 8103,131 Bradford Ave,,Pittsburgh,PA,15205,ALLEGHENY,-80.066765,40.434078,42700
-80.162468,40.453209,Spice N Sabzi,1120 Park Manor Blvd,,Pittsburgh,PA,15205,ALLEGHENY,-80.162468,40.453209,42720
-79.986259,40.449608,Lotus Food,1649 Penn Ave,,Pittsburgh,PA,15222,ALLEGHENY,-79.986259,40.449608,42754
-80.053444,40.429836,Westwood Asian Bazaar,2165 Noblestown Rd,,Pittsburgh,PA,15205,ALLEGHENY,-80.053444,40.429836,42760
-80.00309,40.358257,Rite Aid 10950,568 Caste Vlg,,Pittsburgh,PA,15236,ALLEGHENY,-80.00309,40.358257,43543
-79.987129,40.330959,South Park Sunoco,5660 Brownsville Rd,,Pittsburgh,PA,15236,ALLEGHENY,-79.987129,40.330959,43551
-79.964645,40.340656,Walgreens 09188,4 Old Clairton Rd,,Pittsburgh,PA,15236,ALLEGHENY,-79.964645,40.340656,43555
-80.071632,40.464703,Dollar General 24234,1225 Chartiers Ave,,McKees Rocks,PA,15136,ALLEGHENY,-80.071632,40.464703,43810
-79.946472,40.333809,Gordon Food Service Store LLC MP134,510 Clairton Blvd,,Pittsburgh,PA,15236,ALLEGHENY,-79.946472,40.333809,43816
-80.236275,40.443119,DOLLAR GENERAL  3388,470 Penn Lincoln Dr,,Imperial,PA,15126,ALLEGHENY,-80.236275,40.443119,44463
-80.055969,40.438206,Stratmore Market,1511 Stratmore St,,Pittsburgh,PA,15205,ALLEGHENY,-80.055969,40.438206,44683
-80.05558,40.427067,Dollar Tree 4522,2350 Noblestown Rd,,Pittsburgh,PA,15205,ALLEGHENY,-80.05558,40.427067,44927
-80.166626,40.458073,Costco Wholesale 0332,202 Costco Dr,,Pittsburgh,PA,15205,ALLEGHENY,-80.166626,40.458073,44936
-80.10453,40.467995,7-eleven Store #36127 36127,137 Clever Rd,,McKees Rocks,PA,15136,ALLEGHENY,-80.10453,40.467995,44983
-80.064957,40.47134,Rocks Express,700 Frederick St,,McKees Rocks,PA,15136,ALLEGHENY,-80.064957,40.47134,45012
-80.073647,40.465549,GetGo 3023,1250 Chartiers Ave,,McKees Rocks,PA,15136,ALLEGHENY,-80.073647,40.465549,45102
-79.985191,40.342377,Aldi 92,5239 Brownsville Rd,,Baldwin,PA,15236,ALLEGHENY,-79.985191,40.342377,45561
-79.985756,40.449944,"ROBERT WHOLEY CO., INC.",1711 Penn Ave,,Pittsburgh,PA,15222,ALLEGHENY,-79.985756,40.449944,46020
-80.002144,40.442791,7-Elelven 165,601 Penn Ave,,Pittsburgh,PA,15222,ALLEGHENY,-80.002144,40.442791,46125
-80.152657,40.441887,Giant Eagle 47,100 Settlers Ridge Center Dr,,Pittsburgh,PA,15205,ALLEGHENY,-80.152657,40.441887,46126
-80.162811,40.518318,Kaas Enterprise Llc,1017 4th Ave,,Coraopolis,PA,15108,ALLEGHENY,-80.162811,40.518318,46213
-79.778191,40.401695,"Lnc Store  9, Pitcairn Sunoco",479 Broadway,,Pitcairn,PA,15140,ALLEGHENY,-79.778191,40.401695,46416
-79.884598,40.443611,Dollar General 8972,700 Penn St,,Wilkinsburg,PA,15221,ALLEGHENY,-79.884598,40.443611,46763
-79.944321,40.459114,Bloomfield Saturday Market,5050 Liberty Ave,,Pittsburgh,PA,15224,ALLEGHENY,-79.944321,40.459114,46774
-79.873596,40.437172,Shop Mart,625 Ardmore Blvd,,Pittsburgh,PA,15221,ALLEGHENY,-79.873596,40.437172,46778
-80.003342,40.440479,C&c News & Snax,2 PPG Pl,,Pittsburgh,PA,15222,ALLEGHENY,-80.003342,40.440479,47123
-80.066078,40.445267,7-eleven Store #36131b 36131B,10 W Prospect Ave,,Pittsburgh,PA,15205,ALLEGHENY,-80.066078,40.445267,47124
-79.803284,40.562939,Walmart 3838,2010 Village Center Dr,,Tarentum,PA,15084,ALLEGHENY,-79.803284,40.562939,49081
-79.802132,40.566074,Sam's Club 4952,2000 Village Center Dr,,Tarentum,PA,15084,ALLEGHENY,-79.802132,40.566074,49089
-79.978645,40.336502,Family Dollar Store 5224,340 Curry Hollow Rd,,Pittsburgh,PA,15236,ALLEGHENY,-79.978645,40.336502,49218
-79.985275,40.342293,Double Fresh Llc 426,5250 Brownsville Road,,Pittsburgh,PA,15236,ALLEGHENY,-79.985275,40.342293,49227
-79.98777,40.41539,Brownsville Beer And Convenience,224 Brownsville Rd,,Pittsburgh,PA,15210,ALLEGHENY,-79.98777,40.41539,49235
-79.947472,40.460827,APLUS 40217H,4779 Liberty Ave,,Pittsburgh,PA,15224,ALLEGHENY,-79.947472,40.460827,49300
-79.952492,40.464306,Rite Aid 10939,4411 Howley St,,Pittsburgh,PA,15224,ALLEGHENY,-79.952492,40.464306,49305
-79.988235,40.414532,Triangle Food Mart Corporation 1,101 Amanda Ave,,Pittsburgh,PA,15210,ALLEGHENY,-79.988235,40.414532,49782
-79.99762,40.420097,Beltzhoover Mini Mart,216 Beltzhoover Ave,,Pittsburgh,PA,15210,ALLEGHENY,-79.99762,40.420097,49789
-79.97863,40.336803,Curry Hollow Sunoco,370 Curry Hollow Rd,,Pittsburgh,PA,15236,ALLEGHENY,-79.97863,40.336803,50639
-80.056862,40.463543,Aldi 73,114 Chartiers Ave,,McKees Rocks,PA,15136,ALLEGHENY,-80.056862,40.463543,50832
-80.104538,40.467995,7 Eleven 36127H,137 Clever Rd,,McKees Rocks,PA,15136,ALLEGHENY,-80.104538,40.467995,50847
-79.886192,40.442322,Local Gold Mining LLC,623 South Ave,,Pittsburgh,PA,15221,ALLEGHENY,-79.886192,40.442322,51971
-79.781952,40.659119,Par Mar Store 60,7208 State Route 908,,Tarentum,PA,15084,ALLEGHENY,-79.781952,40.659119,52114
-79.962463,40.468582,RITE AID 2798,3939 Butler St,,Pittsburgh,PA,15201,ALLEGHENY,-79.962463,40.468582,52528
-80.113899,40.5532,Sheetz 500,1910 Mt Nebo Rd,,Sewickley,PA,15143,ALLEGHENY,-80.113899,40.5532,52554
-80.127953,40.450958,Sheetz 629,5554 Steubenville Pike,,McKees Rocks,PA,15136,ALLEGHENY,-80.127953,40.450958,52848
-80.074753,40.472935,Galaxy Supermarket Inc,801 Broadway Ave,,McKees Rocks,PA,15136,ALLEGHENY,-80.074753,40.472935,52853
-79.956894,40.462864,Bloomfield Bp,4006 Liberty Ave,,Pittsburgh,PA,15224,ALLEGHENY,-79.956894,40.462864,52870
-79.894867,40.447014,Walgreens 10345,7628 Penn Ave,,Pittsburgh,PA,15221,ALLEGHENY,-79.894867,40.447014,52878
-80.097015,40.46941,Giant Eagle 2,1800 McKees Rocks Rd,,MC Kees Rocks,PA,15136,ALLEGHENY,-80.097015,40.46941,52931
-79.95163,40.34779,Target Stores 1270,1717 Lebanon Church Rd,,Pittsburgh,PA,15236,ALLEGHENY,-79.95163,40.34779,53560
-79.970428,40.343586,CVS Pharmacy 2333,5242 Clairton Blvd,,Pittsburgh,PA,15236,ALLEGHENY,-79.970428,40.343586,53561
-79.935013,40.468887,Garfield Community Farm Farmer's Market,509 Wicklow St,,Pittsburgh,PA,15224,ALLEGHENY,-79.935013,40.468887,53634
-79.856125,40.409607,Family Dollar Store 824,1500 Yost Blvd,,Pittsburgh,PA,15221,ALLEGHENY,-79.856125,40.409607,53636
-79.94487,40.464954,In And Out Corner Market,4900 Penn Ave,,Pittsburgh,PA,15224,ALLEGHENY,-79.94487,40.464954,53656
-79.939735,40.464542,ALDI 69091 69091,5200 Penn Ave,,Pittsburgh,PA,15224,ALLEGHENY,-79.939735,40.464542,53974
-79.90052,40.354931,Par Mar Store 67,4732 Lebanon Church Rd,,Dravosburg,PA,15034,ALLEGHENY,-79.90052,40.354931,53999
-80.054321,40.427837,Noblestown Global Food Mart,2300 Noblestown Rd,,Pittsburgh,PA,15205,ALLEGHENY,-80.054321,40.427837,54069
-80.035797,40.44043,Farmer Girl Eb,1 Noblestown Rd,,Pittsburgh,PA,15205,ALLEGHENY,-80.035797,40.44043,54070
-79.891808,40.349373,Speed Mart,209 3rd St,,Dravosburg,PA,15034,ALLEGHENY,-79.891808,40.349373,54193
-79.86721,40.442871,The Avenue,1614 Penn Ave,,Pittsburgh,PA,15221,ALLEGHENY,-79.86721,40.442871,54202
-79.877411,40.440899,Happy Mart ,1100 Penn Ave,,Pittsburgh,PA,15221,ALLEGHENY,-79.877411,40.440899,54204
-79.952065,40.464138,Community Market Bloomfield 96,4401 Liberty Ave,,Pittsburgh,PA,15224,ALLEGHENY,-79.952065,40.464138,54304
-79.880096,40.442055,Global Food Pittsburgh,914 Penn Avenue,,Pittsburgh,PA,15221,ALLEGHENY,-79.880096,40.442055,55027
-79.89325,40.446556,Sunoco,7701 Penn Ave,,Pittsburgh,PA,15221,ALLEGHENY,-79.89325,40.446556,55149
-80.169479,40.520756,La Poblanita International Inc,801 4th Ave,,Coraopolis,PA,15108,ALLEGHENY,-80.169479,40.520756,55198
-79.882164,40.442608,Puff Mart Of Pittsburgh Inc,798 Penn Ave,,Pittsburgh,PA,15221,ALLEGHENY,-79.882164,40.442608,55262
-79.948547,40.461876,Bloomfield Groceria,237 Cedarville St,,Pittsburgh,PA,15224,ALLEGHENY,-79.948547,40.461876,55276
-80.204231,40.558182,Giant Eagle 37,18 Quaker Village Shopping Ctr,,Leetsdale,PA,15056,ALLEGHENY,-80.204231,40.558182,55383
-80.204536,40.558041,Dollar Tree 5033,8 Quaker Village Shopping Ctr,,Leetsdale,PA,15056,ALLEGHENY,-80.204536,40.558041,55504
-79.878822,40.438927,Hanini Market,1105 Franklin Ave,,Pittsburgh,PA,15221,ALLEGHENY,-79.878822,40.438927,55509
-79.886116,40.427151,Edgewood Giant Eagle 1619,1705 S Braddock Ave,,Pittsburgh,PA,15218,ALLEGHENY,-79.886116,40.427151,55530
-79.848282,40.416664,Rite Aid 10934,2336 Ardmore Blvd,,Pittsburgh,PA,15221,ALLEGHENY,-79.848282,40.416664,55591
-80.094933,40.474373,7-eleven Store 36195,2 Heckel Rd,,McKees Rocks,PA,15136,ALLEGHENY,-80.094933,40.474373,55782
-80.067329,40.467594,Broadway Market Of Mckees Rocks Inc,295 Broadway Ave,,McKees Rocks,PA,15136,ALLEGHENY,-80.067329,40.467594,55794
-80.167221,40.518276,Uni-Mart,852 5th Ave,,Coraopolis,PA,15108,ALLEGHENY,-80.167221,40.518276,56006
-80.216225,40.517616,ALDI 69065,2830 Gracy Center Way,,Coraopolis,PA,15108,ALLEGHENY,-80.216225,40.517616,56469
-79.752884,40.603184,Asay's News Stand,328 E 6th Ave,,Tarentum,PA,15084,ALLEGHENY,-79.752884,40.603184,56492
-80.05455,40.631577,Giant Eagle 43,155 Towne Centre Dr,,Wexford,PA,15090,ALLEGHENY,-80.05455,40.631577,59146
-79.989426,40.412334,Sunoco,427 Brownsville Rd,,Pittsburgh,PA,15210,ALLEGHENY,-79.989426,40.412334,59349
-80.221893,40.517426,Par Mar Store 81,921 Brodhead Rd,,Coraopolis,PA,15108,ALLEGHENY,-80.221893,40.517426,59363
-79.809555,40.33849,DOLLAR GENERAL STORE  4225,1985 Lincoln Way,,White Oak,PA,15131,ALLEGHENY,-79.809555,40.33849,59560
-80.050247,40.354389,Trader Joe's 630,1600 Washington Rd,Ste 1,Pittsburgh,PA,15228,ALLEGHENY,-80.050247,40.354389,60081
-80.220886,40.517277,Walgreens 10917,6906 University Blvd,,Coraopolis,PA,15108,ALLEGHENY,-80.220886,40.517277,60296
-80.217148,40.501141,Pittsburgh Commissary 2309,79 Soldiers Ln,,Coraopolis,PA,15108,ALLEGHENY,-80.217148,40.501141,60310
-80.054329,40.496513,Bellevue Farmers Market,34 N Balph Ave,,Pittsburgh,PA,15202,ALLEGHENY,-80.054329,40.496513,60438
-80.043053,40.380306,Eden's Market,99 Alfred St,,Pittsburgh,PA,15228,ALLEGHENY,-80.043053,40.380306,60756
-79.856812,40.382706,7-eleven Store  36155 36155,818 Duquesne Blvd,,Duquesne,PA,15110,ALLEGHENY,-79.856812,40.382706,60819
-79.998718,40.439861,Target Store T3392,482 Smithfield St,,Pittsburgh,PA,15219,ALLEGHENY,-79.998718,40.439861,61394
-79.846657,40.372902,Duquesne Super Mart Inc,9 S 2nd St,,Duquesne,PA,15110,ALLEGHENY,-79.846657,40.372902,61396
-79.908501,40.365013,Dollar General 14985,5800 Buttermilk Hollow Rd,,Pittsburgh,PA,15207,ALLEGHENY,-79.908501,40.365013,61714
-79.941544,40.402439,Dylamato's Market  LLC,5414 2nd Ave,,Pittsburgh,PA,15207,ALLEGHENY,-79.941544,40.402439,63525
-79.983665,40.438534,"CIO Stores, LLC 21 21",1605 5th Ave,,Pittsburgh,PA,15219,ALLEGHENY,-79.983665,40.438534,63619
-79.975273,40.448425,ANN'S MARKET,2316 Webster Ave,,Pittsburgh,PA,15219,ALLEGHENY,-79.975273,40.448425,63630
-79.951614,40.451984,CVS PHARMACY INC 4369,4610 Centre Ave,,Pittsburgh,PA,15213,ALLEGHENY,-79.951614,40.451984,63875
-79.897614,40.315754,Dollar General Store 17160,1227 State Route 837,,Jefferson Hills,PA,15025,ALLEGHENY,-79.897614,40.315754,63891
-79.984711,40.450592,Market Outlet,1809 Penn Ave,,Pittsburgh,PA,15222,ALLEGHENY,-79.984711,40.450592,64116
-80.167442,40.457672,ALDI 52,100 Costco Dr,,Pittsburgh,PA,15205,ALLEGHENY,-80.167442,40.457672,65012
-79.780479,40.403664,Wall Avenue Express,417 Wall Ave,,Pitcairn,PA,15140,ALLEGHENY,-79.780479,40.403664,65225
-79.811325,40.380909,Getgo 3109,436 Lincoln Hwy,,East MC Keesport,PA,15035,ALLEGHENY,-79.811325,40.380909,65344
-80.069771,40.440399,Rite Aid 10922,200 Crafton Ingram Shp Ctr,,Pittsburgh,PA,15205,ALLEGHENY,-80.069771,40.440399,65354
-80.000961,40.440914,CVS Pharmacy 4008,242 5th Ave,,Pittsburgh,PA,15222,ALLEGHENY,-80.000961,40.440914,65357
-79.985374,40.450188,LABAD'S GROCERY,1727 Penn Ave,,Pittsburgh,PA,15222,ALLEGHENY,-79.985374,40.450188,65367
-79.983612,40.451324,Pennsylvania Macaroni Co Inc,2010 Penn Ave,,Pittsburgh,PA,15222,ALLEGHENY,-79.983612,40.451324,65373
-79.778458,40.401913,Broadway Market,468 Broadway,,Pitcairn,PA,15140,ALLEGHENY,-79.778458,40.401913,65488
-79.981544,40.341736,Uni- Mart Akshar Conv Corp,298 Knoedler Rd,,Pittsburgh,PA,15236,ALLEGHENY,-79.981544,40.341736,65734
-79.957047,40.325451,Damauli Bazar,600 Old Clairton Rd,,Pittsburgh,PA,15236,ALLEGHENY,-79.957047,40.325451,65744
-79.969978,40.44149,Oak Hill Market,504 Oak Hill Dr,,Pittsburgh,PA,15213,ALLEGHENY,-79.969978,40.44149,66480
-79.948906,40.452847,Dollar General 15559,4725 Centre Ave,,Pittsburgh,PA,15213,ALLEGHENY,-79.948906,40.452847,66486
-79.713905,40.446487,Rite Aid 10955,1804 Golden Mile Hwy,,Pittsburgh,PA,15239,ALLEGHENY,-79.713905,40.446487,66841
-79.968346,40.343071,Baldwin Indo Nepali Grocery Store,5403 Clairton Blvd,,Pittsburgh,PA,15236,ALLEGHENY,-79.968346,40.343071,68671
-79.976082,40.337521,Neupane Brothers Llc N/A,308 Curry Hollow Rd,,Pittsburgh,PA,15236,ALLEGHENY,-79.976082,40.337521,68982
-80.06144,40.505806,The Quick Serve,400 Union Ave,,Bellevue,PA,15202,ALLEGHENY,-80.06144,40.505806,70244
-80.094368,40.510258,7-eleven Store 2701 36191A,8136 Ohio River Blvd,,Pittsburgh,PA,15202,ALLEGHENY,-80.094368,40.510258,70945
-79.949356,40.452717,SALIMS MIDDLE EASTERN FOODS,4705 Centre Ave,,Pittsburgh,PA,15213,ALLEGHENY,-79.949356,40.452717,71713
-80.166237,40.457901,Gordon Food Service Store LLC MP 136,1 Urbano Way,,Pittsburgh,PA,15205,ALLEGHENY,-80.166237,40.457901,72231
-80.053696,40.428047,Rite Aid 7924,2270 Noblestown Rd,,Pittsburgh,PA,15205,ALLEGHENY,-80.053696,40.428047,72235
-79.98262,40.452065,Strip District Meats,2121 Penn Ave,,Pittsburgh,PA,15222,ALLEGHENY,-79.98262,40.452065,72633
-79.809319,40.336563,Rite Aid 10911,1236 Long Run Rd,,White Oak,PA,15131,ALLEGHENY,-79.809319,40.336563,72689
-80.072548,40.438969,Walgreens 1034,112 W Steuben St,,Crafton,PA,15205,ALLEGHENY,-80.072548,40.438969,72927
-79.781586,40.312626,Boston Mini Mart,2630 Coulterville Rd,,McKeesport,PA,15131,ALLEGHENY,-79.781586,40.312626,72950
-79.957176,40.440754,RITE AID 0272,209 Atwood St,,Pittsburgh,PA,15213,ALLEGHENY,-79.957176,40.440754,73000
-79.960526,40.438953,CVS Pharmacy 2348,3422 Forbes Ave,,Pittsburgh,PA,15213,ALLEGHENY,-79.960526,40.438953,73223
-79.951782,40.452148,Bombay Food Market,4605 Centre Ave,,Pittsburgh,PA,15213,ALLEGHENY,-79.951782,40.452148,73239
-79.951042,40.449333,7-eleven Store #40106a 40106A,195 N Craig St,,Pittsburgh,PA,15213,ALLEGHENY,-79.951042,40.449333,73243
-79.948479,40.445095,Kohli's Indian Imports 1,319 S Craig St,,Pittsburgh,PA,15213,ALLEGHENY,-79.948479,40.445095,73244
-79.936676,40.310543,Grace Asia Grocery,1237 Route 51,,Clairton,PA,15025,ALLEGHENY,-79.936676,40.310543,73245
-80.001556,40.357906,Giant Eagle 31,5260 Grove Rd,,Pittsburgh,PA,15236,ALLEGHENY,-80.001556,40.357906,74852
-79.943268,40.4072,"Elizabeth Pharmacy, Inc.",5041 2nd Ave,,Pittsburgh,PA,15207,ALLEGHENY,-79.943268,40.4072,74922
-80.093079,40.440647,Speedway 2903,4311 Steubenville Pike,,Pittsburgh,PA,15205,ALLEGHENY,-80.093079,40.440647,75037
-80.052467,40.432098,Noblestown Rd. Shop N Save,2103 Noblestown Rd,,Pittsburgh,PA,15205,ALLEGHENY,-80.052467,40.432098,75043
-80.07032,40.438564,CVS PHARMACY INC 4002,70 W Steuben St,,Pittsburgh,PA,15205,ALLEGHENY,-80.07032,40.438564,75365
-79.997299,40.442158,Rite Aid 10937,623 Smithfield St,,Pittsburgh,PA,15222,ALLEGHENY,-79.997299,40.442158,75368
-79.883736,40.290443,Miller Ave Food Mart,672 Miller Ave,,Clairton,PA,15025,ALLEGHENY,-79.883736,40.290443,75380
-80.161095,40.448402,Get Go 3057,6514 Steubenville Pike,,Pittsburgh,PA,15205,ALLEGHENY,-80.161095,40.448402,77704
-79.956718,40.324226,Slivas Pleasant Hills Shop N Save,649 Old Clairton Rd,,Pittsburgh,PA,15236,ALLEGHENY,-79.956718,40.324226,77715
-80.000557,40.437382,Smithfield News,115 Smithfield St,,Pittsburgh,PA,15222,ALLEGHENY,-80.000557,40.437382,77791
-79.981262,40.452946,WING FAT HONG,2306 Penn Ave,,Pittsburgh,PA,15222,ALLEGHENY,-79.981262,40.452946,77793
-80.05352,40.4282,7-eleven Store 2701 36185A,2269 Noblestown Rd,,Pittsburgh,PA,15205,ALLEGHENY,-80.05352,40.4282,77795
-80.000259,40.442364,7-eleven Store 2701 36145B,643 Liberty Ave,,Pittsburgh,PA,15222,ALLEGHENY,-80.000259,40.442364,77797
-80.070869,40.439888,GIANT EAGLE 646,51 Walsh Rd,,CRAFTON,PA,15205,ALLEGHENY,-80.070869,40.439888,77807
-79.972748,40.331169,WEISS MEATS,100 Terence Dr,,Pittsburgh,PA,15236,ALLEGHENY,-79.972748,40.331169,77828
-79.944847,40.327969,DOLLAR GENERAL STORE  8554,716 Clairton Blvd,,Pittsburgh,PA,15236,ALLEGHENY,-79.944847,40.327969,77834
-79.979202,40.338249,Rite Aid 10949,5410 Keeport Dr,,Pittsburgh,PA,15236,ALLEGHENY,-79.979202,40.338249,77940
-79.941917,40.320313,Sheetz 376,1000 Clairton Blvd,,Pittsburgh,PA,15236,ALLEGHENY,-79.941917,40.320313,77947
-79.756622,40.601704,Marathon,100 E 7th Ave,,Tarentum,PA,15084,ALLEGHENY,-79.756622,40.601704,77965
-79.794685,40.575214,Z Corner Store,520 Pittsburgh Mills Cir,,Tarentum,PA,15084,ALLEGHENY,-79.794685,40.575214,77980
-79.888,40.293449,RITE AID 3200,623 Saint Clair Ave,,Clairton,PA,15025,ALLEGHENY,-79.888,40.293449,78000
-79.84465,40.373367,Family Dollar Store 4675,27 Duquesne Blvd,,Duquesne,PA,15110,ALLEGHENY,-79.84465,40.373367,78529
-79.998291,40.442886,"Steel City Tobacco, Inc.",819 Liberty Ave,,Pittsburgh,PA,15222,ALLEGHENY,-79.998291,40.442886,79038
-80.056145,40.426785,Fuelland,2373 Noblestown Rd,,Pittsburgh,PA,15205,ALLEGHENY,-80.056145,40.426785,79046
-80.084404,40.440056,CIO Store 19,4100A Steubenville Pike,,Pittsburgh,PA,15205,ALLEGHENY,-80.084404,40.440056,79056
-79.884628,40.444256,Campbell's Caribbean Fish Market,1029 Wood St,,Pittsburgh,PA,15221,ALLEGHENY,-79.884628,40.444256,79375
-79.884163,40.442791,Save-a-lot,725 Ross Ave,,Pittsburgh,PA,15221,ALLEGHENY,-79.884163,40.442791,79481
-79.95517,40.439068,Las Palmas 2,326 Atwood St,,Pittsburgh,PA,15213,ALLEGHENY,-79.95517,40.439068,79534
-79.883018,40.293968,Family Dollar Store 4774,533 Miller Ave,,Clairton,PA,15025,ALLEGHENY,-79.883018,40.293968,79605
-80.000671,40.440681,Kum & Go,262 5th Ave,,Pittsburgh,PA,15222,ALLEGHENY,-80.000671,40.440681,80116
-79.73423,40.604538,Par Mar Store 200,101 Mile Lock Ln,,Brackenridge,PA,15014,ALLEGHENY,-79.73423,40.604538,80193
-80.078667,40.472092,Speedway 6721,50 Angelina Ave,,McKees Rocks,PA,15136,ALLEGHENY,-80.078667,40.472092,80196
-80.133263,40.452312,Bp Gas Station,2 Beaver Grade Rd,,McKees Rocks,PA,15136,ALLEGHENY,-80.133263,40.452312,80371
-80.050117,40.354679,The Fresh Market 138,1551 Washington Rd,,Mt Lebanon,PA,15228,ALLEGHENY,-80.050117,40.354679,80568
-79.812927,40.333549,Speedway 2911,1200 Long Run Rd,,White Oak,PA,15131,ALLEGHENY,-79.812927,40.333549,80586
-79.760628,40.600372,Family Dollar 12193,140 W 7th Ave,,Tarentum,PA,15084,ALLEGHENY,-79.760628,40.600372,81684
-79.802254,40.567204,Aldi 69060,1040 Village Center Dr,,Tarentum,PA,15084,ALLEGHENY,-79.802254,40.567204,81796
-79.886826,40.444298,CVS Pharmacy 4133,520 Penn Ave,,Wilkinsburg,PA,15221,ALLEGHENY,-79.886826,40.444298,81918
-79.889519,40.44521,Getgo 3106,408 Penn Ave,,Wilkinsburg,PA,15221,ALLEGHENY,-79.889519,40.44521,81923
-79.849854,40.419338,Stop & Shop Convenience,2110 Ardmore Blvd,,Pittsburgh,PA,15221,ALLEGHENY,-79.849854,40.419338,81925
-80.158859,40.444332,Sheetz 353,5410 Campbells Run Rd,,Pittsburgh,PA,15205,ALLEGHENY,-80.158859,40.444332,82018
-80.163704,40.451958,DOLLAR TREE 0228,1360 Park Manor Blvd,,Pittsburgh,PA,15205,ALLEGHENY,-80.163704,40.451958,82025
-80.07106,40.439602,Dollar Tree 4287,47 Walsh Rd,,Pittsburgh,PA,15205,ALLEGHENY,-80.07106,40.439602,82153
-80.057198,40.47398,In & Out Corner Market ,300 Helen St,,McKees Rocks,PA,15136,ALLEGHENY,-80.057198,40.47398,83238
-80.07486,40.472652,East African Grocery Store,1008 Dohrman St,,McKees Rocks,PA,15136,ALLEGHENY,-80.07486,40.472652,83242
-80.072762,40.471928,Mama Lena's Italian Deli,647 Broadway Ave,,McKees Rocks,PA,15136,ALLEGHENY,-80.072762,40.471928,83258
-79.963829,40.471462,Lawrenceville Farmers Market,115 41st St,,Pittsburgh,PA,15201,ALLEGHENY,-79.963829,40.471462,83455
-80.053009,40.609337,GetGo 3032,10500 Perry Hwy,,Wexford,PA,15090,ALLEGHENY,-80.053009,40.609337,84246
-79.970963,40.336636,Sheetz 253,251 Curry Hollow Rd,,Pittsburgh,PA,15236,ALLEGHENY,-79.970963,40.336636,84318
-79.986649,40.392368,Himalayan Asian Grocery Llc,2122 Brownsville Rd,Ste 1,Pittsburgh,PA,15210,ALLEGHENY,-79.986649,40.392368,84332
-79.987801,40.414139,Family Dollar Store 2116,240 Hays Ave,,Pittsburgh,PA,15210,ALLEGHENY,-79.987801,40.414139,84340
-79.885574,40.453945,King City,7900 Bennett St,,Pittsburgh,PA,15221,ALLEGHENY,-79.885574,40.453945,85509
-80.052292,40.382473,CVS Pharmacy 5094,328 Cochran Rd,,Pittsburgh,PA,15228,ALLEGHENY,-80.052292,40.382473,86013
-80.052246,40.493916,CVS Pharmacy 4103,355 LINCOLN AVE,,PITTSBURGH,PA,15202,ALLEGHENY,-80.052246,40.493916,86172
-80.055382,40.495407,DOLLAR GENERAL  4607,491 Lincoln Ave,,Bellevue,PA,15202,ALLEGHENY,-80.055382,40.495407,86327
-80.057396,40.496387,LINCOLN BAKERY,543 Lincoln Ave,,Bellevue,PA,15202,ALLEGHENY,-80.057396,40.496387,86330
-79.887764,40.424519,DOLLAR TREE 142,1759 S Braddock Ave,,Pittsburgh,PA,15218,ALLEGHENY,-79.887764,40.424519,87444
-79.88549,40.420628,NOBLE MART,2100 Noble St,,Swissvale,PA,15218,ALLEGHENY,-79.88549,40.420628,87450
-79.883537,40.487457,GetGo 3172,1081 Freeport Rd,,Pittsburgh,PA,15238,ALLEGHENY,-79.883537,40.487457,87640
-79.836693,40.537529,Giant Eagle 5103,2611 Freeport Rd,,Pittsburgh,PA,15238,ALLEGHENY,-79.836693,40.537529,87653
-79.882141,40.487637,Rite Aid 10954,1125 Freeport Rd,,Pittsburgh,PA,15238,ALLEGHENY,-79.882141,40.487637,87668
-79.890244,40.486656,Walmart 5339,877 Freeport Rd,,Pittsburgh,PA,15238,ALLEGHENY,-79.890244,40.486656,87699
-79.854538,40.346779,Dc Foodmart,929 Union Ave,,McKeesport,PA,15132,ALLEGHENY,-79.854538,40.346779,87720
-79.837158,40.34462,Unimart,3400 Versailles Ave,,McKeesport,PA,15132,ALLEGHENY,-79.837158,40.34462,87721
-79.777924,40.402569,Taza Market,500 2nd Street,,Pitcairn,PA,15140,ALLEGHENY,-79.777924,40.402569,88239
-79.83519,40.321175,Schwebel Baking Co of PA 7,4315 Walnut St,,McKeesport,PA,15132,ALLEGHENY,-79.83519,40.321175,89143
-79.83577,40.354912,GetGo 3013,2411 5th Ave,,McKeesport,PA,15132,ALLEGHENY,-79.83577,40.354912,89152
-79.831512,40.358593,Jimit Sunoco,2904 5th Ave,,McKeesport,PA,15132,ALLEGHENY,-79.831512,40.358593,89697
-79.743065,40.440659,GETGO 3140,4685 Old William Penn Hwy,,Monroeville,PA,15146,ALLEGHENY,-79.743065,40.440659,89936
-79.772949,40.436333,BFS Foods 64,3984 Monroeville Blvd,,Monroeville,PA,15146,ALLEGHENY,-79.772949,40.436333,90962
-79.770981,40.438564,Big Lots 1960,4047 William Penn Hwy,,Monroeville,PA,15146,ALLEGHENY,-79.770981,40.438564,90969
-79.957466,40.441158,Rite Aid 10930,3700 Forbes Ave,,Pittsburgh,PA,15213,ALLEGHENY,-79.957466,40.441158,91142
-79.885368,40.421906,Sitaram Oil Corporation,2000 S Braddock Ave,,Pittsburgh,PA,15218,ALLEGHENY,-79.885368,40.421906,91269
-79.89061,40.427029,BP To Go,1600 S Braddock Ave,,Pittsburgh,PA,15218,ALLEGHENY,-79.89061,40.427029,91282
-79.834961,40.617573,Dollar General 23440,201 Starr Rd,,Russellton,PA,15076,ALLEGHENY,-79.834961,40.617573,91489
-80.027107,40.342625,Double Star Groceries,4994 Library Rd,,Bethel Park,PA,15102,ALLEGHENY,-80.027107,40.342625,91631
-80.217804,40.519936,Rite Aid 10908,5990 University Blvd,Ste 30,Coraopolis,PA,15108,ALLEGHENY,-80.217804,40.519936,91655
-79.770157,40.398506,Speedway 2917,4363 Broadway Blvd,,Monroeville,PA,15146,ALLEGHENY,-79.770157,40.398506,92015
-80.050072,40.603165,"Six Guys Grocers, Inc",10293 Perry Hwy,,Wexford,PA,15090,ALLEGHENY,-80.050072,40.603165,92461
-79.986618,40.392666,Family Dollar Store 12168,2116 Brownsville Rd,,Pittsburgh,PA,15210,ALLEGHENY,-79.986618,40.392666,92465
-80.061478,40.465645,Par Mar Store 1100,704 Chartiers Ave,,McKees Rocks,PA,15136,ALLEGHENY,-80.061478,40.465645,92636
-80.062088,40.472889,Pashupati Llc,721 Island Ave,,McKees Rocks,PA,15136,ALLEGHENY,-80.062088,40.472889,92802
-80.076576,40.469936,Dollar General 2643,500 Pine Hollow Rd.,A,McKees Rocks,PA,15136,ALLEGHENY,-80.076576,40.469936,92961
-80.057053,40.32143,Bethel Park Cash N Save,3405 S Park Rd,,Bethel Park,PA,15102,ALLEGHENY,-80.057053,40.32143,93112
-79.77771,40.401833,JOE'S BUTCHER SHOP,502 Broadway,,Pitcairn,PA,15140,ALLEGHENY,-79.77771,40.401833,93162
-79.986801,40.395298,Fueland 228,1927 Brownsville Rd,,Pittsburgh,PA,15210,ALLEGHENY,-79.986801,40.395298,93290
-80.054199,40.612068,Whole Foods Market 10377,10576 Perry Hwy,,Wexford,PA,15090,ALLEGHENY,-80.054199,40.612068,93296
-80.059708,40.633732,Sheetz 277,12000 Perry Hwy,,Wexford,PA,15090,ALLEGHENY,-80.059708,40.633732,93304
-79.742294,40.440285,Dollar Tree 6413,4680 Old William Penn Hwy,,Monroeville,PA,15146,ALLEGHENY,-79.742294,40.440285,93481
-79.732582,40.434216,Sheetz 582,4723 William Penn Hwy,,Monroeville,PA,15146,ALLEGHENY,-79.732582,40.434216,93484
-79.772331,40.436123,Get Go 3060,4000 Monroeville Blvd,,Monroeville,PA,15146,ALLEGHENY,-79.772331,40.436123,93487
-80.023338,40.351242,Sheetz 515,4599 Library Rd,,Bethel Park,PA,15102,ALLEGHENY,-80.023338,40.351242,93494
-80.024139,40.334,CVS Pharmacy 2447,5190 Library Rd,,Bethel Park,PA,15102,ALLEGHENY,-80.024139,40.334,94217
-79.832809,40.617245,Family Dollar Store 3340,14 Creighton Russellton Rd,,Russellton,PA,15076,ALLEGHENY,-79.832809,40.617245,94223
-79.790848,40.424255,Monroeville Farmers Market,2399 Monroeville Rd,Tillbrook,Monroeville,PA,15146,ALLEGHENY,-79.790848,40.424255,94251
-79.995445,40.421799,Adan Market 2 Inc,707 E Warrington Ave,,Pittsburgh,PA,15210,ALLEGHENY,-79.995445,40.421799,94929
-79.767181,40.3908,Dollar General 8740,4500 Broadway Blvd,,Monroeville,PA,15146,ALLEGHENY,-79.767181,40.3908,95671
-79.765884,40.391651,Sunoco Haymaker,1855 Haymaker Rd,,Monroeville,PA,15146,ALLEGHENY,-79.765884,40.391651,95678
-79.867661,40.351147,Family Dollar Store 1631,130 Lysle Blvd,,McKeesport,PA,15132,ALLEGHENY,-79.867661,40.351147,96744
-79.836624,40.354141,Family Dollar Store 6554,2347 5th Ave,,McKeesport,PA,15132,ALLEGHENY,-79.836624,40.354141,96747
-79.849228,40.341465,Bailie Food Mart,2316 Bailey Ave,,McKeesport,PA,15132,ALLEGHENY,-79.849228,40.341465,96762
-79.836456,40.321171,Dollar Tree 4501,4313 Walnut St,Ste 10,McKeesport,PA,15132,ALLEGHENY,-79.836456,40.321171,96767
-79.986526,40.417347,A & E Deli,105 Brownsville Rd,,Pittsburgh,PA,15210,ALLEGHENY,-79.986526,40.417347,96843
-79.88279,40.435783,A & M MARKET,320 Coal St,,Pittsburgh,PA,15221,ALLEGHENY,-79.88279,40.435783,96957
-80.042274,40.42189,Green Tree Farmers Market in the Park,895 Greentree Rd,,Pittsburgh,PA,15220,ALLEGHENY,-80.042274,40.42189,97068
-79.834816,40.400978,Atobabs African International Food ONE,825 E Pittsburgh Mall,,East Pittsburgh,PA,15112,ALLEGHENY,-79.834816,40.400978,97185
-79.789146,40.476898,Dollar Tree 6074,7181 Saltsburg Rd,,Pittsburgh,PA,15235,ALLEGHENY,-79.789146,40.476898,99481
-79.842842,40.450394,Family Dollar 12538,867 Longwood Ave,,Pittsburgh,PA,15235,ALLEGHENY,-79.842842,40.450394,99503
-80.090355,40.617828,Rite Aid 07825,201 Devine Dr,,Wexford,PA,15090,ALLEGHENY,-80.090355,40.617828,99532
-79.994423,40.421852,One Stop Mini Mart,751 E Warrington Ave,,Pittsburgh,PA,15210,ALLEGHENY,-79.994423,40.421852,99549
-79.979805,40.355904,Aplus 40224,4639 Clairton Blvd,,Pittsburgh,PA,15236,ALLEGHENY,-79.979805,40.355904,99825
-79.945061,40.328899,7-eleven Store 2701 36192A,650 Clairton Blvd,,Pittsburgh,PA,15236,ALLEGHENY,-79.945061,40.328899,99828
-79.972824,40.344917,Sejal And Sister Llc,5150 Clairton Blvd,,Pittsburgh,PA,15236,ALLEGHENY,-79.972824,40.344917,100112
-80.025978,40.342155,Rojels Foods LLC/ Bethel Park Shop N Save,5001 Library Road,,Bethel Park,PA,15102,ALLEGHENY,-80.025978,40.342155,100220
-80.022652,40.395721,Brookline Sunoco,533 Brookline Blvd,,Pittsburgh,PA,15226,ALLEGHENY,-80.022652,40.395721,100546
-79.768784,40.398006,Sheetz 327,2100 Mosside Blvd,,Monroeville,PA,15146,ALLEGHENY,-79.768784,40.398006,100637
-79.713455,40.443562,ALDI 46,1766 Golden Mile Hwy,,Monroeville,PA,15146,ALLEGHENY,-79.713455,40.443562,100638
-79.769012,40.435246,LEONARD LABRIOLA ITALIAN GROCERY,4039 Monroeville Blvd,,Monroeville,PA,15146,ALLEGHENY,-79.769012,40.435246,100643
-79.966484,40.461678,Quick Stop,3349 Liberty Ave,,Pittsburgh,PA,15201,ALLEGHENY,-79.966484,40.461678,101807
-80.014915,40.392017,7-eleven Store 2701-36154b 36154B,1101 Brookline Blvd,,Pittsburgh,PA,15226,ALLEGHENY,-80.014915,40.392017,102380
-79.880249,40.333874,DOLLAR GENERAL STORE  7214,1515 Washington Blvd,,McKeesport,PA,15133,ALLEGHENY,-79.880249,40.333874,102745
-79.933617,40.45118,RITE AID 0268,5504 Walnut St,,Pittsburgh,PA,15232,ALLEGHENY,-79.933617,40.45118,104170
-80.034637,40.423275,Giant Eagle 74,1165 McKinney Lane,Parkway Center Mall,Pittsburgh,PA,15220,ALLEGHENY,-80.034637,40.423275,106008
-80.085793,40.408497,Family Dollar Store 4708,300 Broadway St,,Carnegie,PA,15106,ALLEGHENY,-80.085793,40.408497,106042
-79.817833,40.48502,Walgreens 9675,6201 Saltsburg Rd,,Pittsburgh,PA,15235,ALLEGHENY,-79.817833,40.48502,106287
-79.841568,40.525734,WALGREENS 09803,324 Hulton Rd,,Oakmont,PA,15139,ALLEGHENY,-79.841568,40.525734,106298
-79.81237,40.430054,Rite Aid 10945,3434 William Penn Hwy,,Pittsburgh,PA,15235,ALLEGHENY,-79.81237,40.430054,106299
-79.874763,40.429062,Braddock Hills Mini Mart C-Store,1050 Brinton Rd,,Pittsburgh,PA,15221,ALLEGHENY,-79.874763,40.429062,106576
-79.881325,40.45509,Family Dollar 11387,8184 Frankstown Ave,,Pittsburgh,PA,15221,ALLEGHENY,-79.881325,40.45509,106584
-79.962158,40.524944,Rite Aid 10909,1710 Mount Royal Blvd,,Glenshaw,PA,15116,ALLEGHENY,-79.962158,40.524944,107696
-79.866173,40.461075,Family Dollar Store 6598,9010 Frankstown Rd,,Pittsburgh,PA,15235,ALLEGHENY,-79.866173,40.461075,109070
-79.827255,40.449108,APLUS 40110H,600 Rodi Rd,,Pittsburgh,PA,15235,ALLEGHENY,-79.827255,40.449108,109083
-79.990402,40.404678,Brownsville Road Foodland,1119 Brownsville Rd,,Pittsburgh,PA,15210,ALLEGHENY,-79.990402,40.404678,109976
-79.786003,40.477882,Rite Aid 10947,7345 Saltsburg Rd,,Penn Hills,PA,15235,ALLEGHENY,-79.786003,40.477882,110278
-79.843475,40.512444,Rite Aid 10915,109 Allegheny River Blvd,,Oakmont,PA,15139,ALLEGHENY,-79.843475,40.512444,110407
-80.026161,40.342354,Dollar General 0817,5000 Library Rd,,Bethel Park,PA,15102,ALLEGHENY,-80.026161,40.342354,110603
-80.032509,40.327824,Coen Markets 1302,2733 S Park Rd,,Bethel Park,PA,15102,ALLEGHENY,-80.032509,40.327824,110615
-80.023262,40.551971,Aldi 69,6290 Northway Dr,,Pittsburgh,PA,15237,ALLEGHENY,-80.023262,40.551971,110953
-80.053116,40.534248,Par Mar Store 104,501 Lowries Run Rd,,Pittsburgh,PA,15237,ALLEGHENY,-80.053116,40.534248,110957
-79.988708,40.527672,Thompson Run Market,333 Thompson Run Rd,,Pittsburgh,PA,15237,ALLEGHENY,-79.988708,40.527672,110959
-79.884521,40.44368,OU'S INTERNATIONAL COMPANY,705 Penn Ave,,Wilkinsburg,PA,15221,ALLEGHENY,-79.884521,40.44368,111437
-79.890709,40.445736,Rite Aid 10935,331 Penn Ave,,Wilkinsburg,PA,15221,ALLEGHENY,-79.890709,40.445736,111462
-79.853539,40.413532,Giant Eagle 77,254 Yost Blvd,,Pittsburgh,PA,15221,ALLEGHENY,-79.853539,40.413532,113307
-79.848167,40.416534,Aldi 56,2348 Ardmore Blvd,,Pittsburgh,PA,15221,ALLEGHENY,-79.848167,40.416534,113308
-79.941284,40.464752,PEOPLES GROCERY,5136 Penn Ave,,Pittsburgh,PA,15224,ALLEGHENY,-79.941284,40.464752,113310
-79.885063,40.420254,International Market,2116 Noble St,,Swissvale,PA,15218,ALLEGHENY,-79.885063,40.420254,113863
-80.222305,40.503254,Sheetz 379,9002 University Blvd,,Moon Township,PA,15108,ALLEGHENY,-80.222305,40.503254,113962
-79.766037,40.390221,Rite Aid 10919,4534 Broadway Blvd,,Monroeville,PA,15146,ALLEGHENY,-79.766037,40.390221,114524
-79.972977,40.484955,A & F LLC,544 North Ave,,Millvale,PA,15209,ALLEGHENY,-79.972977,40.484955,114535
-79.830887,40.538578,Sheetz 619,2871 Freeport Rd,,Pittsburgh,PA,15238,ALLEGHENY,-79.830887,40.538578,115023
-79.889656,40.486561,Giant Eagle 72,910 Freeport Rd,,Pittsburgh,PA,15238,ALLEGHENY,-79.889656,40.486561,115026
-79.893913,40.432709,Braddock Avenue Express,1101 S Braddock Ave,,Pittsburgh,PA,15218,ALLEGHENY,-79.893913,40.432709,115075
-79.866074,40.491398,Quick Sub Mart,164 Freeport Rd,,Pittsburgh,PA,15238,ALLEGHENY,-79.866074,40.491398,115301
-80.057137,40.463665,RITE AID 3527,155 Chartiers Ave,,McKees Rocks,PA,15136,ALLEGHENY,-80.057137,40.463665,115342
-80.166298,40.519753,CORAOPOLIS FAST STOP,879 4th Ave,,Coraopolis,PA,15108,ALLEGHENY,-80.166298,40.519753,116481
-80.216225,40.517616,DOLLARTREE 1272,2830 Gracy Center Way,,Coraopolis,PA,15108,ALLEGHENY,-80.216225,40.517616,116490
-79.871338,40.342308,Uni Mart Port Vue,1181 Romine Ave,,McKeesport,PA,15133,ALLEGHENY,-79.871338,40.342308,116494
-80.06498,40.465809,Family Dollar Store 8379,821 Chartiers Ave,,McKees Rocks,PA,15136,ALLEGHENY,-80.06498,40.465809,116994
-79.876686,40.415379,SUPER ONE,2601 S Braddock Ave,,Pittsburgh,PA,15218,ALLEGHENY,-79.876686,40.415379,117123
-80.182083,40.540813,Safran s Super Market,429 Walnut St,,Sewickley,PA,15143,ALLEGHENY,-80.182083,40.540813,117135
-79.989929,40.403358,Rite Aid 10926,1222 Brownsville Rd,,Pittsburgh,PA,15210,ALLEGHENY,-79.989929,40.403358,117255
-80.058746,40.475822,CAROL ANN'S CORNER STORE INC,2 George St,,MC Kees Rocks,PA,15136,ALLEGHENY,-80.058746,40.475822,117373
-79.940575,40.464664,Family Dollar Store 6137,5160 Penn Ave,,Pittsburgh,PA,15224,ALLEGHENY,-79.940575,40.464664,117377
-79.893982,40.446781,Family Dollar Store 3675,7627 Penn Ave,,Wilkinsburg,PA,15221,ALLEGHENY,-79.893982,40.446781,117379
-79.971939,40.490726,Bp Gas Station,1001 Evergreen Ave,,Pittsburgh,PA,15209,ALLEGHENY,-79.971939,40.490726,117423
-79.976852,40.495773,Dukes Shaler Sunoco,1329 Babcock Blvd,,Pittsburgh,PA,15209,ALLEGHENY,-79.976852,40.495773,117563
-80.177429,40.448364,Sam's Club 6575,249 Summit Park Dr,,Pittsburgh,PA,15275,ALLEGHENY,-80.177429,40.448364,117575
-79.801254,40.432182,Gordon Food Service Store LLC MP133,3620 William Penn Hwy,,Monroeville,PA,15146,ALLEGHENY,-79.801254,40.432182,117604
-80.182732,40.447014,Target Store 1217,600 Chauvet Dr,,Pittsburgh,PA,15275,ALLEGHENY,-80.182732,40.447014,117607
-79.974403,40.481838,Millvale Diner & Quick Mart,307 North Ave,,Pittsburgh,PA,15209,ALLEGHENY,-79.974403,40.481838,117756
-79.962059,40.468849,GETGO 3107,4000 Butler St,,Pittsburgh,PA,15201,ALLEGHENY,-79.962059,40.468849,117980
-80.055565,40.627735,Aldi 77,11800 Perry Hwy,,Wexford,PA,15090,ALLEGHENY,-80.055565,40.627735,118411
-80.351875,40.484314,Circle K 4235,200 Market Place Dr,,Imperial,PA,15126,ALLEGHENY,-80.351875,40.484314,118483
-79.986694,40.417816,Sunoco ARLINTON,1643 Arlington Ave,,Pittsburgh,PA,15210,ALLEGHENY,-79.986694,40.417816,118715
-80.093468,40.616528,Tbones Marketplace,100 VIP Dr,Ste 101,Wexford,PA,15090,ALLEGHENY,-80.093468,40.616528,118871
-79.995491,40.421753,Dollar General 19007,700 E Warrington Ave,,Pittsburgh,PA,15210,ALLEGHENY,-79.995491,40.421753,118874
-79.778694,40.437435,CVS 5890,3893 William Penn Hwy,,Monroeville,PA,15146,ALLEGHENY,-79.778694,40.437435,119069
-80.239136,40.441845,RITE AID 3571,103 W Allegheny Rd,,Imperial,PA,15126,ALLEGHENY,-80.239136,40.441845,119209
-80.165611,40.517933,DOLLAR GENERAL  4990,926 5th Ave,,Coraopolis,PA,15108,ALLEGHENY,-80.165611,40.517933,119585
-80.160789,40.517159,RITE AID 1448,412 Broadway St,,Coraopolis,PA,15108,ALLEGHENY,-80.160789,40.517159,119609
-79.770859,40.435696,Target Store 1219,4004 Monroeville Blvd,,Monroeville,PA,15146,ALLEGHENY,-79.770859,40.435696,119729
-79.888954,40.420128,SUNOCO MINI MARKET,7403 Washington Ave,,Pittsburgh,PA,15218,ALLEGHENY,-79.888954,40.420128,120435
-79.890182,40.421921,CVS PHARMACY 4091,7404 Church St,,Swissvale,PA,15218,ALLEGHENY,-79.890182,40.421921,120624
-79.713707,40.444702,CVS Pharmacy 4045,1775 Golden Mile Hwy,,Monroeville,PA,15146,ALLEGHENY,-79.713707,40.444702,121241
-79.952347,40.513885,Sheetz 678,973 William Flynn Hwy,,Glenshaw,PA,15116,ALLEGHENY,-79.952347,40.513885,121809
-79.980591,40.500275,Dollar General 19684,1701 Babcock Blvd,,Millvale,PA,15209,ALLEGHENY,-79.980591,40.500275,121936
-79.832298,40.34758,Giant Eagle 64,3812 Oneil Blvd,,McKeesport,PA,15132,ALLEGHENY,-79.832298,40.34758,122361
-80.089806,40.403515,Mary's G Store,200 3rd St,,Carnegie,PA,15106,ALLEGHENY,-80.089806,40.403515,122376
-79.97419,40.480515,Yetter's Candies,504 Grant Ave,,Pittsburgh,PA,15209,ALLEGHENY,-79.97419,40.480515,122410
-79.840118,40.327381,Aldi 89,300 Eden Park Blvd,,McKeesport,PA,15132,ALLEGHENY,-79.840118,40.327381,122623
-79.839432,40.3451,Family Dollar 11619,3215 Versailles Ave,,McKeesport,PA,15132,ALLEGHENY,-79.839432,40.3451,123540
-79.968918,40.478672,Family Dollar Store 3182,123 Lincoln Ave,,Millvale,PA,15209,ALLEGHENY,-79.968918,40.478672,123564
-79.767189,40.389145,Haymaker Village Supermarkets,4548 Broadway Blvd,,Monroeville,PA,15146,ALLEGHENY,-79.767189,40.389145,123713
-79.767822,40.43919,Rite Aid 10917,4111 William Penn Hwy,,Monroeville,PA,15146,ALLEGHENY,-79.767822,40.43919,123819
-79.754646,40.425907,Dollar General 22935,2501 Mosside Blvd,,Monroeville,PA,15146,ALLEGHENY,-79.754646,40.425907,123827
-79.963448,40.537659,Giant Eagle 18,1671 Butler Plank Rd,,Glenshaw,PA,15116,ALLEGHENY,-79.963448,40.537659,125344
-80.08654,40.40749,Carnegie Farmers Market,111 E Main St,,Carnegie,PA,15106,ALLEGHENY,-80.08654,40.40749,125392
-79.759315,40.445492,GetGo 3399,317 Old Haymaker Rd,,Monroeville,PA,15146,ALLEGHENY,-79.759315,40.445492,125561
-79.788345,40.42696,Alstan Mini Mart,2526 Monroeville Blvd,,Monroeville,PA,15146,ALLEGHENY,-79.788345,40.42696,125569
-80.08992,40.387718,Marathon,2022 Washington Rd,,Heidelburg,PA,15106,ALLEGHENY,-80.08992,40.387718,125625
-79.772926,40.43837,Aldi 69048,3995 William Penn Hwy,,Monroeville,PA,15146,ALLEGHENY,-79.772926,40.43837,125795
-79.763611,40.446121,Orquidea Latin Market,4415 Old William Penn Hwy,,Monroeville,PA,15146,ALLEGHENY,-79.763611,40.446121,125796
-79.840607,40.348927,Big Boy Market,3100 Brownlee Ave,,McKeesport,PA,15132,ALLEGHENY,-79.840607,40.348927,125920
-79.837448,40.277,P&w Mini Mart 1,410 Scenery Dr,,Elizabeth,PA,15037,ALLEGHENY,-79.837448,40.277,126269
-79.799576,40.432884,Sam's Club 6677,3621 William Penn Hwy,,Monroeville,PA,15146,ALLEGHENY,-79.799576,40.432884,126309
-80.017303,40.392269,Brookline Mini Mart,1001 Brookline Blvd,,Pittsburgh,PA,15226,ALLEGHENY,-80.017303,40.392269,126322
-80.015419,40.382973,Pk Mart & Asian Grocery,435 McNeilly Rd,,Pittsburgh,PA,15226,ALLEGHENY,-80.015419,40.382973,126328
-79.865479,40.351181,Mckeesport Valero,231 5th Ave,,McKeesport,PA,15132,ALLEGHENY,-79.865479,40.351181,128209
-79.874809,40.350643,Super Food Market,319 Ann St,,McKeesport,PA,15132,ALLEGHENY,-79.874809,40.350643,128223
-79.852737,40.336369,Deep Oil Corporation,2105 Walnut St,,McKeesport,PA,15132,ALLEGHENY,-79.852737,40.336369,128226
-79.72094,40.427555,Speedway 2900,4830 William Penn Hwy,,Monroeville,PA,15146,ALLEGHENY,-79.72094,40.427555,129043
-79.768204,40.444107,Speedway 2901,4380 Old William Penn Hwy,,Monroeville,PA,15146,ALLEGHENY,-79.768204,40.444107,129122
-79.859253,40.352047,Shubhshrey Inc,600 Lysle Blvd,,McKeesport,PA,15132,ALLEGHENY,-79.859253,40.352047,129433
-79.935165,40.456913,GIANT EAGLE 40,5550 Centre Ave,,Pittsburgh,PA,15232,ALLEGHENY,-79.935165,40.456913,130493
-79.833443,40.607555,RUSSELLTON SHOP N SAVE,908 LITTLE DEER CREEK VALLEY,,RUSSELLTON,PA,15076,ALLEGHENY,-79.833443,40.607555,131264
-79.837303,40.35339,Speedway 6503,2325 5th Ave,,Mckeesport,PA,15132,ALLEGHENY,-79.837303,40.35339,131279
-79.83992,40.326763,Rite Aid 07843,3700 Walnut St,,McKeesport,PA,15132,ALLEGHENY,-79.83992,40.326763,131302
-79.857765,40.3522,RITE AID 1370,725 Lysle Blvd,,McKeesport,PA,15132,ALLEGHENY,-79.857765,40.3522,131532
-79.962555,40.538826,Walgreens 09043,1701 William Flynn Hwy,,Glenshaw,PA,15116,ALLEGHENY,-79.962555,40.538826,131651
-79.962486,40.538803,GetGo 3280,1700 William Flynn Hwy,,Glenshaw,PA,15116,ALLEGHENY,-79.962486,40.538803,131667
-80.043343,40.39978,Kuhn's Market 4,3125 Banksville Rd,,Pittsburgh,PA,15216,ALLEGHENY,-80.043343,40.39978,131757
-80.065788,40.312038,Rite Aid 6733,503 Clifton Rd,,Bethel Park,PA,15102,ALLEGHENY,-80.065788,40.312038,131859
-79.898766,40.488213,LEONARD LABRIOLA FOODS,605 Freeport Rd,,Sharpsburg,PA,15215,ALLEGHENY,-79.898766,40.488213,131940
-79.926498,40.496571,Coen Markets 1234,1501 N Canal St,,Sharpsburg,PA,15215,ALLEGHENY,-79.926498,40.496571,131949
-80.046539,40.419632,"Lnc#301, Greentree LNC#301",956 Greentree Rd,,Pittsburgh,PA,15220,ALLEGHENY,-80.046539,40.419632,132271
-80.057327,40.321804,RUTHFRED MARKET,3400 S Park Rd,,Bethel Park,PA,15102,ALLEGHENY,-80.057327,40.321804,132549
-80.021919,40.395084,PITALAND INC.,620 Brookline Blvd,,Pittsburgh,PA,15226,ALLEGHENY,-80.021919,40.395084,132671
-79.837234,40.537399,Target Stores 2385,2661 Freeport Rd,,Pittsburgh,PA,15238,ALLEGHENY,-79.837234,40.537399,133019
-80.092674,40.386105,Heidelberg Shop N Save,2100 Washington Pike,,Carnegie,PA,15106,ALLEGHENY,-80.092674,40.386105,133443
-79.947563,40.59066,7-Eleven Store 36187,4630 William Flynn Hwy,,Allison Park,PA,15101,ALLEGHENY,-79.947563,40.59066,133468
-80.082382,40.41008,CVS PHARMACY INC 3999,401 Chestnut St,,Carnegie,PA,15106,ALLEGHENY,-80.082382,40.41008,133749
-80.082214,40.409843,Get Go 3705,410 Chestnut St,,Carnegie,PA,15106,ALLEGHENY,-80.082214,40.409843,133755
-80.082191,40.410366,Rahma Grocery And Halal Meat,409 E Main St,,Carnegie,PA,15106,ALLEGHENY,-80.082191,40.410366,133932
-80.092674,40.386105,Rite Aid 10907,2100 WASHINGTON PIKE,,CARNEGIE,PA,15106,ALLEGHENY,-80.092674,40.386105,133942
-80.02282,40.331806,Dollar Tree 618,5253 Library Rd,,Bethel Park,PA,15102,ALLEGHENY,-80.02282,40.331806,133969
-79.840454,40.327644,Dollar General 19273,3600 Walnut St,,McKeesport,PA,15132,ALLEGHENY,-79.840454,40.327644,134724
-79.855995,40.351707,Fifth Ave Shop N Save,815 5th Ave,,McKeesport,PA,15132,ALLEGHENY,-79.855995,40.351707,134912
-80.015427,40.383556,Aldi 72,3089 Sussex Ave,,Pittsburgh,PA,15226,ALLEGHENY,-80.015427,40.383556,135479
-79.813904,40.430473,William Penn Highway Sunoco,3406 William Penn Hwy,,Pittsburgh,PA,15235,ALLEGHENY,-79.813904,40.430473,135809
-79.82666,40.464207,DOLLAR TREE 258,12 Federal Dr,,Pittsburgh,PA,15235,ALLEGHENY,-79.82666,40.464207,135815
-80.023483,40.396126,CVS Pharmacy 3189,510 Brookline Blvd,,Pittsburgh,PA,15226,ALLEGHENY,-80.023483,40.396126,135925
-80.097466,40.475479,Rite Aid 10914,1700 Pine Hollow Rd,,McKees Rocks,PA,15136,ALLEGHENY,-80.097466,40.475479,136409
-79.839378,40.325592,American Natural 5,3800 Walnut St,,McKeesport,PA,15132,ALLEGHENY,-79.839378,40.325592,137836
-79.836456,40.321171,Olympia Shop N Save,4313 Walnut St,,McKeesport,PA,15132,ALLEGHENY,-79.836456,40.321171,137842
-79.825424,40.353027,CIO Store 15,2305 O'neil Blvd,,Mckeesport,PA,15132,ALLEGHENY,-79.825424,40.353027,137844
-79.849129,40.345795,Holy Kow LLC,2300 Versailles Ave,,Mckeesport,PA,15132,ALLEGHENY,-79.849129,40.345795,138064
-79.857201,40.352184,Dollar General 14967,740 Lysle Blvd,,McKeesport,PA,15132,ALLEGHENY,-79.857201,40.352184,138069
-79.947632,40.483925,Family Dollar Store 5275,450 56th St,B,Pittsburgh,PA,15201,ALLEGHENY,-79.947632,40.483925,138172
-80.218742,40.517159,Big Lots 5397,2820 Gracy Center Way,,Coraopolis,PA,15108,ALLEGHENY,-80.218742,40.517159,138240
-80.222328,40.51498,Walmart Supercenter 4644,7500 University Blvd,,Moon Township,PA,15108,ALLEGHENY,-80.222328,40.51498,138394
-79.828896,40.342789,Lampert's Deli Express,2010 Eden Park Blvd,,McKeesport,PA,15132,ALLEGHENY,-79.828896,40.342789,138785
-80.227875,40.563625,Kwik Fill 239,152 McGovern Blvd,,Crescent,PA,15046,ALLEGHENY,-80.227875,40.563625,140447
-79.962189,40.524982,Dollar Tree 4084,1712 Mount Royal Blvd,,Glenshaw,PA,15116,ALLEGHENY,-79.962189,40.524982,140803
-80.204521,40.558002,Get Go 3137,8A Quaker Village Shopping Ctr,,Leetsdale,PA,15056,ALLEGHENY,-80.204521,40.558002,140868
-79.876694,40.443134,Family Dollar 11688,1200 Swissvale Ave,,Pittsburgh,PA,15221,ALLEGHENY,-79.876694,40.443134,140879
-79.982285,40.386833,Donut Connection,2414 Brownsville Rd,,Pittsburgh,PA,15210,ALLEGHENY,-79.982285,40.386833,141487
-80.153542,40.513393,Speedy Tobacco Mart,1602 5th Ave,,Coraopolis,PA,15108,ALLEGHENY,-80.153542,40.513393,141850
-79.973602,40.458275,Salem Market & Grill,2923 Penn Ave,,Pittsburgh,PA,15201,ALLEGHENY,-79.973602,40.458275,142220
-79.810013,40.393288,DELI-ICIOUS CATERING INC,500 Station St,,Wilmerding,PA,15148,ALLEGHENY,-79.810013,40.393288,142489
-79.876747,40.414993,Dollar General 17869,2610 S Braddock Ave,,Swissvale,PA,15218,ALLEGHENY,-79.876747,40.414993,142588
-79.987106,40.417965,Dollar Tree 5553,1630 Arlington Ave,Ste 1,Pittsburgh,PA,15210,ALLEGHENY,-79.987106,40.417965,142602
-79.884354,40.43026,Edgewood Avenue Express Inc. Convenienc,253 Edgewood Ave,,Pittsburgh,PA,15218,ALLEGHENY,-79.884354,40.43026,142752
-79.891106,40.427689,GetGo 3147,1599 S Braddock Ave,,Pittsburgh,PA,15218,ALLEGHENY,-79.891106,40.427689,142758
-79.753174,40.433441,"Lnc#15, Monroeville LNC#15",2699 Mosside Blvd,,Monroeville,PA,15146,ALLEGHENY,-79.753174,40.433441,142765
-80.043983,40.586784,Walgreens 10282,30 Pine Creek Rd,,Wexford,PA,15090,ALLEGHENY,-80.043983,40.586784,142804
-79.914513,40.433201,The Blue Slide Market,2333 Beechwood Blvd,,Pittsburgh,PA,15217,ALLEGHENY,-79.914513,40.433201,143828
-79.972733,40.460068,Many More Asian Market,3050 Smallman St,,Pittsburgh,PA,15201,ALLEGHENY,-79.972733,40.460068,144254
-79.947609,40.483944,Lawrenceville Shop N Save,450 56th St,,Pittsburgh,PA,15201,ALLEGHENY,-79.947609,40.483944,144270
-79.968307,40.461845,Family Dollar Store 11119,3300 Penn Ave,,Pittsburgh,PA,15201,ALLEGHENY,-79.968307,40.461845,144272
-80.192604,40.521252,Uni Mart,101 Fern Hollow Rd,,Coraopolis,PA,15108,ALLEGHENY,-80.192604,40.521252,145416
-80.217804,40.519936,Giant Eagle 68,5990 University Blvd,,Coraopolis,PA,15108,ALLEGHENY,-80.217804,40.519936,145418
-80.054352,40.621548,CVS Pharmacy 2449,11240 Perry Hwy,,Wexford,PA,15090,ALLEGHENY,-80.054352,40.621548,145445
-79.987839,40.414371,RITE AID 269,230 Hays Ave,,Pittsburgh,PA,15210,ALLEGHENY,-79.987839,40.414371,145452
-80.090454,40.387852,Walgreens 09950,2055 Washington Pke,,Carnegie,PA,15106,ALLEGHENY,-80.090454,40.387852,145623
-79.890213,40.421558,Discount 3 Inc,1910 Monongahela Ave,,Pittsburgh,PA,15218,ALLEGHENY,-79.890213,40.421558,146695
-79.890114,40.421944,Dollar General 19281,7402 Church St,,Swissvale,PA,15218,ALLEGHENY,-79.890114,40.421944,146698
-80.01619,40.545288,GetGo 3021,7675 McKnight Rd,,Pittsburgh,PA,15237,ALLEGHENY,-80.01619,40.545288,146825
-79.99807,40.396244,Coen Markets 1231,1709 Saw Mill Run Blvd,,Pittsburgh,PA,15210,ALLEGHENY,-79.99807,40.396244,147411
-80.193504,40.544964,7-eleven Store 2701 36183A,209 Ohio River Blvd,,Sewickley,PA,15143,ALLEGHENY,-80.193504,40.544964,147423
-79.885483,40.422104,Cogo's,2003 S Braddock Ave,,Pittsburgh,PA,15218,ALLEGHENY,-79.885483,40.422104,147429
-80.099915,40.612438,Sheetz 617,2615 Nicholson Rd,,Sewickley,PA,15143,ALLEGHENY,-80.099915,40.612438,147939
-80.008751,40.529381,Walgreens 09736,4885 McKnight Rd,Ste 7,Pittsburgh,PA,15237,ALLEGHENY,-80.008751,40.529381,148671
-80.023155,40.568375,CVS 10034,611 Duncan Ave,,Pittsburgh,PA,15237,ALLEGHENY,-80.023155,40.568375,148672
-80.179947,40.539928,Rite Aid 10916,517 Beaver St,,Sewickley,PA,15143,ALLEGHENY,-80.179947,40.539928,148714
-80.004509,40.517067,Dollar Tree 5038,4714 McKnight Rd,,Pittsburgh,PA,15237,ALLEGHENY,-80.004509,40.517067,148789
-80.036118,40.540695,Cash and Carry,1021 Perry Hwy,,Pittsburgh,PA,15237,ALLEGHENY,-80.036118,40.540695,148796
-79.843445,40.330902,Mckees Mart,3111 Walnut St,,McKeesport,PA,15132,ALLEGHENY,-79.843445,40.330902,149117
-79.863747,40.345345,Gk Foodmart Inc.,1026 Walnut St,Ste 1,Mckeesport,PA,15132,ALLEGHENY,-79.863747,40.345345,149125
-79.958954,40.516953,APLUS 40226H,1020 Mount Royal Blvd,,Pittsburgh,PA,15223,ALLEGHENY,-79.958954,40.516953,149670
-80.031151,40.293461,7-eleven Store 36189A,6250 Library Rd,,Bethel Park,PA,15102,ALLEGHENY,-80.031151,40.293461,151196
-79.804138,40.540989,Rite Aid 10893,1200 Pittsburgh St,,Cheswick,PA,15024,ALLEGHENY,-79.804138,40.540989,151291
-80.032997,40.5443,Dollar General 15169,120 Three Degree Rd,Suite A,Pittsburgh,PA,15237,ALLEGHENY,-80.032997,40.5443,151343
-79.707176,40.428741,Dollar General 10875,5032 William Penn Hwy,,Monroeville,PA,15146,ALLEGHENY,-79.707176,40.428741,151699
-79.995781,40.382004,Rite Aid 10943,2501 Saw Mill Run Blvd,,Pittsburgh,PA,15234,ALLEGHENY,-79.995781,40.382004,151747
-80.008003,40.429771,MT WASHINGTON FOODLAND,125 Virginia Ave,,Mount Washington,PA,15211,ALLEGHENY,-80.008003,40.429771,151767
-79.946526,40.510918,ALDI 45,880 Butler St,Ste 2,Pittsburgh,PA,15223,ALLEGHENY,-79.946526,40.510918,152384
-79.971672,40.555573,GetGo 3489,2401 Ferguson Rd,,Allison Park,PA,15101,ALLEGHENY,-79.971672,40.555573,152402
-79.771606,40.435871,Giant Eagle 60,4010 Monroeville Blvd,,Monroeville,PA,15146,ALLEGHENY,-79.771606,40.435871,152658
-79.79483,40.43055,News Corner Store,A15 Monroeville Mall,,Monroeville,PA,15146,ALLEGHENY,-79.79483,40.43055,152666
-79.75354,40.434181,Shree Anika Inc,2700 Mosside Blvd,,Monroeville,PA,15146,ALLEGHENY,-79.75354,40.434181,152682
-79.722176,40.408699,Nabiha And Eman Llc,4411 Wm Penn Hwy,,Monroeville,PA,15146,ALLEGHENY,-79.722176,40.408699,152684
-79.786293,40.434807,Monroeville Grocery Llc,312 Mall Blvd,,Monroeville,PA,15146,ALLEGHENY,-79.786293,40.434807,152686
-79.998596,40.566422,Dollar Tree 4790,1701 Duncan Ave,Ste 10,Allison Park,PA,15101,ALLEGHENY,-79.998596,40.566422,152729
-80.023766,40.333031,Rite Aid 10906,5235 Library Rd,,Bethel Park,PA,15102,ALLEGHENY,-80.023766,40.333031,153380
-79.774239,40.438126,Sheetz 360,3954 William Penn Hwy,,Monroeville,PA,15146,ALLEGHENY,-79.774239,40.438126,154222
-80.037247,40.368843,7-Eleven Store 36139,285 Mount Lebanon Blvd,,Pittsburgh,PA,15234,ALLEGHENY,-80.037247,40.368843,154293
-80.177292,40.448399,Walmart Supercenter 2300,250 Summit Park Dr,,Pittsburgh,PA,15275,ALLEGHENY,-80.177292,40.448399,154860
-79.959183,40.514282,Getgo 3487,801 Mount Royal Blvd,,Pittsburgh,PA,15223,ALLEGHENY,-79.959183,40.514282,155364
-79.947044,40.603886,Rite Aid 10904,4960 William Flynn Hwy Ste 10,,Allison Park,PA,15101,ALLEGHENY,-79.947044,40.603886,156064
-79.998596,40.566422,Rite Aid 10905,1701 Duncan Ave,,Allison Park,PA,15101,ALLEGHENY,-79.998596,40.566422,156069
-79.880852,40.346626,Marathon,710 W 5th Ave,,Mckeesport,PA,15132,ALLEGHENY,-79.880852,40.346626,156279
-79.837517,40.278057,Citgo,314 Scenery Dr,,Elizabeth,PA,15037,ALLEGHENY,-79.837517,40.278057,156440
-80.025223,40.337273,Giant Eagle 4,5055 Library Rd,Ste 5,Bethel Park,PA,15102,ALLEGHENY,-80.025223,40.337273,156462
-80.049194,40.347183,Giant Eagle 14,7000 Oxford Dr,,Bethel Park,PA,15102,ALLEGHENY,-80.049194,40.347183,156467
-80.024467,40.327724,Getgo 3128,5381 Library Rd,,Bethel Park,PA,15102,ALLEGHENY,-80.024467,40.327724,156476
-80.021523,40.394806,Las Palmas,700 Brookline Blvd,,Pittsburgh,PA,15226,ALLEGHENY,-80.021523,40.394806,157432
-79.948013,40.511703,GLENSHAW SHOP N SAVE,917 Butler St,,Pittsburgh,PA,15223,ALLEGHENY,-79.948013,40.511703,157759
-79.959068,40.515926,Rite Aid 1944,900 Mt Royal Blvd,,Pittsburgh,PA,15223,ALLEGHENY,-79.959068,40.515926,157769
-79.892181,40.326244,The Original Hotspot,539 Monongahela Ave,,Glassport,PA,15045,ALLEGHENY,-79.892181,40.326244,157908
-80.026169,40.338581,RITE AID 4783,5100 Library Rd,,Bethel Park,PA,15102,ALLEGHENY,-80.026169,40.338581,158048
-79.972008,40.479347,APlus 40225,300 Grant Ave,,Millvale,PA,15209,ALLEGHENY,-79.972008,40.479347,158360
-79.979286,40.498802,SHALER SHOP N SAVE,1620 Babcock Blvd,,Pittsburgh,PA,15209,ALLEGHENY,-79.979286,40.498802,158362
-80.024025,40.33485,Aldi 53,5159 Library Rd,,Bethel Park,PA,15102,ALLEGHENY,-80.024025,40.33485,158532
-79.98716,40.391468,Rite Aid 10925,2150 Brownsville Rd,Ste 120,Pittsburgh,PA,15210,ALLEGHENY,-79.98716,40.391468,159979
-79.982269,40.387127,Dollar General 20881,2417 Brownsville Rd,,Pittsburgh,PA,15210,ALLEGHENY,-79.982269,40.387127,159980
-79.955254,40.442791,Forbes Street Market,3955 Forbes Ave,,Pittsburgh,PA,15260,ALLEGHENY,-79.955254,40.442791,160421
-80.011177,40.431263,Coen Markets 1239,304 Virginia Ave,,Mount Washington,PA,15211,ALLEGHENY,-80.011177,40.431263,160691
-80.021835,40.570343,Trader Joe's 624,9020 Covenant Ave,,Pittsburgh,PA,15237,ALLEGHENY,-80.021835,40.570343,160864
-80.068924,40.522621,Giant Eagle 52,132 Ben Avon Heights Rd,,Pittsburgh,PA,15237,ALLEGHENY,-80.068924,40.522621,160883
-80.038971,40.560596,Sheetz 115,8500 Perry Hwy,,Pittsburgh,PA,15237,ALLEGHENY,-80.038971,40.560596,161476
-80.010185,40.537045,Oriental Market,7300 Old McKnight Rd,,Pittsburgh,PA,15237,ALLEGHENY,-80.010185,40.537045,161478
-80.005562,40.521473,7-Eleven Store 36188,4775 Mcknight Rd,,Pittsburgh,PA,15237,ALLEGHENY,-80.005562,40.521473,161487
-80.035011,40.522491,7-Eleven Store 35968J,525 Perry Hwy,,Pittsburgh,PA,15229,ALLEGHENY,-80.035011,40.522491,163439
-80.030685,40.513458,Jeet's Sunoco no,5457 Perrysville Ave,,Pittsburgh,PA,15229,ALLEGHENY,-80.030685,40.513458,163443
-79.721565,40.627026,Freeport Corner Store,2101 Freeport Rd,,Natrona Heights,PA,15065,ALLEGHENY,-79.721565,40.627026,163656
-80.039078,40.516693,DOLLARTREE 2103,1014 W View Park Dr,,Pittsburgh,PA,15229,ALLEGHENY,-80.039078,40.516693,163672
-79.846573,40.396324,APlus 7501,30 Center St,,East Pittsburgh,PA,15112,ALLEGHENY,-79.846573,40.396324,163708
-79.824158,40.462776,Giant Eagle 78,230 Rodi Rd,,Pittsburgh,PA,15235,ALLEGHENY,-79.824158,40.462776,164879
-79.817528,40.484924,Rite Aid 10946,6200 Saltsburg Rd,,Pittsburgh,PA,15235,ALLEGHENY,-79.817528,40.484924,164888
-79.843117,40.460163,GETGO  3108,10525 Frankstown Rd,,Pittsburgh,PA,15235,ALLEGHENY,-79.843117,40.460163,164895
-79.82666,40.463993,ALDI 54,16 Federal Dr,,Pittsburgh,PA,15235,ALLEGHENY,-79.82666,40.463993,164897
-79.810387,40.429951,Sheetz 468,3457 William Penn Hwy,,Pittsburgh,PA,15235,ALLEGHENY,-79.810387,40.429951,165477
-79.947762,40.594555,Dollar General 20044,4706 William Flynn Hwy,,Allison Park,PA,15101,ALLEGHENY,-79.947762,40.594555,165607
-79.885201,40.274044,DOLLAR GENERAL STORE  0542,352 N 2nd Ave,,Elizabeth,PA,15037,ALLEGHENY,-79.885201,40.274044,165615
-79.878311,40.27644,DECARLO FRUIT MARKET,560 McKeesport Rd,,Elizabeth,PA,15037,ALLEGHENY,-79.878311,40.27644,165618
-79.946655,40.511627,Sunoco Pittsburgh ,900 Butler St,,Pittsburgh,PA,15223,ALLEGHENY,-79.946655,40.511627,166224
-79.876122,40.278248,ELIZABETH TOWNSHIP GIANT EAGLE,800 McKeesport Rd,,Elizabeth,PA,15037,ALLEGHENY,-79.876122,40.278248,166558
-79.88633,40.272511,RITE AID 2482,300 Market St,,Elizabeth,PA,15037,ALLEGHENY,-79.88633,40.272511,166563
-80.03672,40.547703,Pines Plaza Shop-n-save 21-1325,1130 Perry Hwy,,Pittsburgh,PA,15237,ALLEGHENY,-80.03672,40.547703,168036
-80.07019,40.531303,Sheetz 610,211 Mount Nebo Rd,,Pittsburgh,PA,15237,ALLEGHENY,-80.07019,40.531303,168045
-79.923126,40.430855,Squirrel Hill Market 1,2329 Murray Ave,,Pittsburgh,PA,15217,ALLEGHENY,-79.923126,40.430855,168130
-80.018333,40.55695,Giant Eagle 67,8080 McIntyre Sq Dr,,PITTSBURGH,PA,15237,ALLEGHENY,-80.018333,40.55695,168164
-80.007042,40.528229,Target 2201,4801 McKnight Rd,Ste 3,Pittsburgh,PA,15237,ALLEGHENY,-80.007042,40.528229,168274
-80.007042,40.528229,KUHNS MARKET,4801 McKnight Rd,,Pittsburgh,PA,15237,ALLEGHENY,-80.007042,40.528229,168281
-80.036606,40.585663,Giant Eagle 45,9805 McKnight Rd,Ste 6,Pittsburgh,PA,15237,ALLEGHENY,-80.036606,40.585663,168288
-80.004654,40.517296,Big Lots 5093,4717 McKnight Rd,,Pittsburgh,PA,15237,ALLEGHENY,-80.004654,40.517296,169100
-80.011223,40.537319,Aldi 93,7221 McKnight Rd,,Ross Township,PA,15237,ALLEGHENY,-80.011223,40.537319,169108
-79.931664,40.455196,Fuel On,5724 Ellsworth Ave,,Pittsburgh,PA,15232,ALLEGHENY,-79.931664,40.455196,169174
-79.933266,40.494541,Family Dollar Store 2396,909 Main St,,Sharpsburg,PA,15215,ALLEGHENY,-79.933266,40.494541,169183
-79.842117,40.460537,CVS Pharmacy 4070,10600 Frankstown Rd,,Pittsburgh,PA,15235,ALLEGHENY,-79.842117,40.460537,170281
-79.947502,40.599445,CVS PHARMACY 7611,4849 William Flynn Hwy,,Allison Park,PA,15101,ALLEGHENY,-79.947502,40.599445,170293
-80.067459,40.535046,Sam's Club 6678,289 Nebo Point Dr,,Pittsburgh,PA,15237,ALLEGHENY,-80.067459,40.535046,170377
-80.028976,40.54697,Getgo 3488,5603 Babcock Blvd,,Pittsburgh,PA,15237,ALLEGHENY,-80.028976,40.54697,170383
-80.067467,40.535103,TARGET STORES 2077,288 Mt Nebo Pointe Rd,,Pittsburgh,PA,15237,ALLEGHENY,-80.067467,40.535103,170480
-80.005333,40.523308,Rite Aid 11916,4770 McKnight Rd,Ste A,Pittsburgh,PA,15237,ALLEGHENY,-80.005333,40.523308,170487
-80.036606,40.585663,Target Store 1218,9805 MCKNIGHT RD,2,Pittsburgh,PA,15237,ALLEGHENY,-80.036606,40.585663,170503
-80.18615,40.442585,Grab N Go,7261 Steubenville Pike,,Oakdale,PA,15071,ALLEGHENY,-80.18615,40.442585,170582
-80.210709,40.4394,Choice Tobacco Outlet Of Oakdale,7859 Steubenville Pike,,Oakdale,PA,15071,ALLEGHENY,-80.210709,40.4394,170870
-79.936478,40.494877,Circle K 4704201,501 N Main St,,Sharpsburg,PA,15215,ALLEGHENY,-79.936478,40.494877,171242
-80.005051,40.426968,Coen Markets 1227,20 Bailey Ave,,Pittsburgh,PA,15211,ALLEGHENY,-80.005051,40.426968,172496
-79.892082,40.325863,The Hotspot Of Glassport,601 Monongahela Ave,,Glassport,PA,15045,ALLEGHENY,-79.892082,40.325863,173537
-79.856117,40.328598,Smile Stop Llc,2615 Liberty Way,,Mckeesport,PA,15133,ALLEGHENY,-79.856117,40.328598,174926
-79.949097,40.588921,Aldi 68,4578 William Flynn Hwy,,Allison Park,PA,15101,ALLEGHENY,-79.949097,40.588921,175591
-80.238335,40.440994,"Lnc#304, Oakdale LNC#304",150 Route 30,,Oakdale,PA,15071,ALLEGHENY,-80.238335,40.440994,176547
-80.23951,40.440182,Imperial 1243,500 Market Place Dr,,Oakdale,PA,15071,ALLEGHENY,-80.23951,40.440182,176557
-80.01944,40.364918,Prashant Mini Mart,3646 Library Rd,,Pittsburgh,PA,15234,ALLEGHENY,-80.01944,40.364918,176579
-80.021362,40.36451,CIO Store 11,3739 Library Rd,,Pittsburgh,PA,15234,ALLEGHENY,-80.021362,40.36451,176582
-79.786156,40.370361,Speedway 2906,1700 Lincoln Hwy,,North Versailles,PA,15137,ALLEGHENY,-79.786156,40.370361,176811
-79.786102,40.370407,Big Lots 1140,1701 Lincoln Hwy,,North Versailles,PA,15137,ALLEGHENY,-79.786102,40.370407,176817
-79.779541,40.369694,ALDI 44,100 Aldi Dr,,North Versailles,PA,15137,ALLEGHENY,-79.779541,40.369694,176852
-80.034286,40.521915,Rite Aid 10940,513 Perry Hwy,,Pittsburgh,PA,15229,ALLEGHENY,-80.034286,40.521915,177304
-80.038673,40.51685,Giant Eagle 25,1029 W View Park Dr,Ste 2,Pittsburgh,PA,15229,ALLEGHENY,-80.038673,40.51685,177308
-79.839432,40.416763,Dollar General 10426,995 Greensburg Pike,,E Pittsburgh,PA,15112,ALLEGHENY,-79.839432,40.416763,177544
-80.00872,40.471176,Perry Market,2601 Perrysville Ave,,Pittsburgh,PA,15214,ALLEGHENY,-80.00872,40.471176,178727
-79.928818,40.422482,Kiev International Food,4223 Murray Ave,,Pittsburgh,PA,15217,ALLEGHENY,-79.928818,40.422482,180036
-79.92305,40.438061,RITE AID 274,1700 Murray Ave,,Pittsburgh,PA,15217,ALLEGHENY,-79.92305,40.438061,180043
-79.818733,40.381916,Family Dollar Store 1769,355 Lincoln Hwy,Ste 8,North Versailles,PA,15137,ALLEGHENY,-79.818733,40.381916,180331
-79.73246,40.618546,Sheetz 631,1002 California Ave,,Natrona Heights,PA,15065,ALLEGHENY,-79.73246,40.618546,180793
-79.78614,40.370461,Giant Eagle 15,1701 Lincoln Hwy,,North Versailles,PA,15137,ALLEGHENY,-79.78614,40.370461,180817
-79.729126,40.62067,Rite Aid 4419,1529 Freeport Rd,,Natrona Heights,PA,15065,ALLEGHENY,-79.729126,40.62067,181270
-80.008545,40.462399,Mercy Market LLC,6 Mercy St,,Pittsburgh,PA,15214,ALLEGHENY,-80.008545,40.462399,181435
-79.712196,40.646206,Walmart 3738,100 Highlands Mall,,Natrona Heights,PA,15065,ALLEGHENY,-79.712196,40.646206,181762
-79.78614,40.370461,DOLLAR GENERAL STORE  4384,1701 Lincoln Hwy,,N Versailles,PA,15137,ALLEGHENY,-79.78614,40.370461,182904
-80.256775,40.495975,Rite Aid 10941,1000 Airport Blvd,,Pittsburgh,PA,15231,ALLEGHENY,-80.256775,40.495975,183137
-79.78627,40.475769,PENN HILLS SHOP N SAVE,2820 Main St,,Pittsburgh,PA,15235,ALLEGHENY,-79.78627,40.475769,183273
-79.804764,40.378574,Shah Sunoco,903 Lincoln Hwy,,North Versailles,PA,15137,ALLEGHENY,-79.804764,40.378574,183535
-79.837959,40.466434,Stop N Shop,10991 Frankstown Rd,,Pittsburgh,PA,15235,ALLEGHENY,-79.837959,40.466434,183921
-79.710732,40.642303,Sai Sunoco,3039 Freeport Rd,,Natrona Heights,PA,15065,ALLEGHENY,-79.710732,40.642303,184095
-79.713821,40.633564,Bob Exxon,2602 Freeport Rd,,Natrona Heights,PA,15065,ALLEGHENY,-79.713821,40.633564,184099
-80.055992,40.581692,7-Eleven Store 36138,740 W Ingomar Rd,,Pittsburgh,PA,15237,ALLEGHENY,-80.055992,40.581692,184209
-80.023376,40.55751,Par Mar Store 56,8197 McKnight Rd,,Pittsburgh,PA,15237,ALLEGHENY,-80.023376,40.55751,184214
-80.013359,40.538021,DOLLARTREE 9021,7219 McKnight Rd,,Pittsburgh,PA,15237,ALLEGHENY,-80.013359,40.538021,184220
-80.045113,40.515274,Center Convience,1498 Center Ave,,Pittsburgh,PA,15229,ALLEGHENY,-80.045113,40.515274,184369
-80.018051,40.520245,ROCHESTER ROAD SHOP AND SAVE,184 Rochester Rd,,West View,PA,15229,ALLEGHENY,-80.018051,40.520245,184381
-80.083298,40.398071,Dollar Tree 5207,1061 Washington Ave,,Carnegie,PA,15106,ALLEGHENY,-80.083298,40.398071,184734
-80.021736,40.55138,BJ's Wholesale Club 387,6720 Northway Dr,,Pittsburgh,PA,15237,ALLEGHENY,-80.021736,40.55138,184794
-79.822327,40.480824,Dollar General 9350,12818 Frankstown Rd,,Pittsburgh,PA,15235,ALLEGHENY,-79.822327,40.480824,184800
-79.840996,40.524696,Uni-Mart,830 Allegheny River Blvd,,Oakmont,PA,15139,ALLEGHENY,-79.840996,40.524696,184801
-80.093216,40.384407,Walmart 5040,2200 Washington Pike,,Carnegie,PA,15106,ALLEGHENY,-80.093216,40.384407,185113
-80.0439,40.44598,Family Dollar 11940,1211 Chartiers Ave,,Pittsburgh,PA,15220,ALLEGHENY,-80.0439,40.44598,185488
-79.922867,40.43544,"MURRAY AVE KOSHER, INC.",1916 Murray Ave,,Pittsburgh,PA,15217,ALLEGHENY,-79.922867,40.43544,185690
-79.928902,40.422558,Giant Eagle 63,4250 Murray Ave,,Pittsburgh,PA,15217,ALLEGHENY,-79.928902,40.422558,185693
-79.865471,40.461311,Giant Eagle 69,9001 Frankstown Rd,,Pittsburgh,PA,15235,ALLEGHENY,-79.865471,40.461311,185918
-79.841011,40.461605,Dollar General 7878,10730 Frankstown Rd,,Pittsburgh,PA,15235,ALLEGHENY,-79.841011,40.461605,185923
-79.842865,40.516479,Kwik Fill 246,400 Allegheny River Blvd,,Oakmont,PA,15139,ALLEGHENY,-79.842865,40.516479,186759
-79.827293,40.465206,Penn Hills Mini Mart And  Cheap Tobacco,11632 Frankstown Rd,,Pittsburgh,PA,15235,ALLEGHENY,-79.827293,40.465206,186773
-80.044968,40.416752,7-eleven Inc F 36193A,999 Greentree Rd,,Pittsburgh,PA,15220,ALLEGHENY,-80.044968,40.416752,186817
-79.841866,40.461147,Family Dollar 32538,10707 Frankstown Rd,,Pittsburgh,PA,15235,ALLEGHENY,-79.841866,40.461147,186852
-79.938164,40.426895,Coen Markets 1232,4071 Beechwood Blvd,,Pittsburgh,PA,15217,ALLEGHENY,-79.938164,40.426895,187092
-79.926735,40.418995,Speedway 2902,4420 Browns Hill Rd,,Pittsburgh,PA,15217,ALLEGHENY,-79.926735,40.418995,187511
-79.842438,40.526009,Speedway 2905,303 Hulton Rd,,Oakmont,PA,15139,ALLEGHENY,-79.842438,40.526009,187842
-79.788376,40.476555,Dollar General 1126,7248 Saltsburg Rd,,Pittsburgh,PA,15235,ALLEGHENY,-79.788376,40.476555,187844
-79.817902,40.432346,Wilkins Shop N Save,3335 William Penn Hwy,,Pittsburgh,PA,15235,ALLEGHENY,-79.817902,40.432346,187848
-79.812737,40.430149,Dollar Tree 5587,3428 William Penn Hwy,,Pittsburgh,PA,15235,ALLEGHENY,-79.812737,40.430149,187849
-79.827354,40.464417,Big Lots 1478,11628 Penn Hills Dr,,Pittsburgh,PA,15235,ALLEGHENY,-79.827354,40.464417,187853
-79.785881,40.477737,Aldi 90,7350 Saltsburg Rd,,Penn Hills,PA,15235,ALLEGHENY,-79.785881,40.477737,187857
-80.015785,40.383965,DOLLAR GENERAL STORE  7045,3060 Sussex Ave,,Pittsburgh,PA,15226,ALLEGHENY,-80.015785,40.383965,188013
-80.061203,40.391975,Get Go 3130,1636 Cochran Rd,,Pittsburgh,PA,15220,ALLEGHENY,-80.061203,40.391975,188914
-79.812935,40.429108,Family Dollar 12885,3430 William Penn Hwy,,Pittsburgh,PA,15235,ALLEGHENY,-79.812935,40.429108,189263
-80.084763,40.396835,Aldi 96,1160 Washington Ave,,Carnegie,PA,15106,ALLEGHENY,-80.084763,40.396835,189331
-80.069527,40.391792,Manpsand Spice Corner,2101 Greentree Rd,Ste B119,Pittsburgh,PA,15220,ALLEGHENY,-80.069527,40.391792,190857
-79.807198,40.540886,Sunoco Cheswick,1001 Pittsburgh St,,Cheswick,PA,15024,ALLEGHENY,-79.807198,40.540886,191262
-80.084404,40.398083,Makkah One Market,1100 Washington Ave,Ste 111,Carnegie,PA,15106,ALLEGHENY,-80.084404,40.398083,191453
-79.839386,40.395203,Sherrys Family Market Retail,549 Bessemer Ave,,East Pittsburgh,PA,15112,ALLEGHENY,-79.839386,40.395203,191456
-80.040421,40.443832,The Elliotts Town Market,928 Chartiers Ave,,Pittsburgh,PA,15220,ALLEGHENY,-80.040421,40.443832,191636
-80.062347,40.392456,Giant Eagle 35,1717 Cochran Rd,,Pittsburgh,PA,15220,ALLEGHENY,-80.062347,40.392456,191717
-80.069183,40.375484,Rite Aid 10956,1121 Bower Hill Rd,,Pittsburgh,PA,15243,ALLEGHENY,-80.069183,40.375484,192276
-79.839432,40.416763,Mega Deli,995 Greensburg Pike,,East Pittsburgh,PA,15112,ALLEGHENY,-79.839432,40.416763,192277
-79.971825,40.55563,DOLLAR GENERAL STORE  7003,2412 Ferguson Rd,,Allison Park,PA,15101,ALLEGHENY,-79.971825,40.55563,193819
-79.948311,40.493336,"Roadside Distributors, Inc",188 Butler St,,Pittsburgh,PA,15223,ALLEGHENY,-79.948311,40.493336,194257
-79.814148,40.540619,Bhangal Llc,1003 Freeport Rd,,Cheswick,PA,15024,ALLEGHENY,-79.814148,40.540619,194323
-79.79892,40.541519,Sheetz 189,1505 Pittsburgh St,,Cheswick,PA,15024,ALLEGHENY,-79.79892,40.541519,194432
-80.032051,40.518433,"CIO Stores, LLC 26 26",411 Perry Hwy,,Pittsburgh,PA,15229,ALLEGHENY,-80.032051,40.518433,195003
-80.034859,40.368683,Asian Grocery,300 Mount Lebanon Blvd,Ste 15,Pittsburgh,PA,15234,ALLEGHENY,-80.034859,40.368683,195834
-79.948753,40.503883,7- Eleven - F 119,22 Grant Ave,,Pittsburgh,PA,15223,ALLEGHENY,-79.948753,40.503883,196720
-80.055283,40.581478,KUHN'S MARKET,745 W. Ingomar Road,,Ingomar,PA,15127,ALLEGHENY,-80.055283,40.581478,197839
-80.028931,40.368637,CASTLE SHANNON SHOP N SAVE,799 Castle Shannon Blvd,,Pittsburgh,PA,15234,ALLEGHENY,-80.028931,40.368637,197910
-80.032204,40.370369,Rite Aid 10942,410 Cooke Ln,,Pittsburgh,PA,15234,ALLEGHENY,-80.032204,40.370369,197920
-80.010735,40.430813,Rite Aid 4965,201 Grace St,,Pittsburgh,PA,15211,ALLEGHENY,-80.010735,40.430813,197966
-79.921265,40.49448,DOLLAR GENERAL  7673,1811 Main St,,Sharpsburg,PA,15215,ALLEGHENY,-79.921265,40.49448,198497
-79.943893,40.498882,Etna Express,421 Butler St,,Etna,PA,15223,ALLEGHENY,-79.943893,40.498882,198599
-79.946526,40.510918,Rite Aid 10938,880 BUTLER ST,,PITTSBURGH,PA,15223,ALLEGHENY,-79.946526,40.510918,198618
-79.837517,40.276772,Dollar General 17870,420 Scenery Dr,,Elizabeth,PA,15037,ALLEGHENY,-79.837517,40.276772,199117
-79.946892,40.590294,Dollar Tree 7202,2860 Wildwood Road Ext,,Allison Park,PA,15101,ALLEGHENY,-79.946892,40.590294,201127
-79.959244,40.559368,7-eleven Store 2701 36186A,3915 William Flynn Hwy,,Allison Park,PA,15101,ALLEGHENY,-79.959244,40.559368,201383
-79.971794,40.555687,Quality Foods Corp - DBA/ Kuhn's Market 5 5,2413 Ferguson Rd,,Allison Park,PA,15101,ALLEGHENY,-79.971794,40.555687,201775
-79.923134,40.414097,CVS 10767,4664 Browns Hill Rd,,Pittsburgh,PA,15217,ALLEGHENY,-79.923134,40.414097,202097
-79.878654,40.264488,GetGo 3005,1000 Hayden Blvd,,Elizabeth,PA,15037,ALLEGHENY,-79.878654,40.264488,203823
-80.008842,40.515194,Sheetz 476,3025 Babcock Blvd,,Pittsburgh,PA,15237,ALLEGHENY,-80.008842,40.515194,205589
-80.064651,40.535011,Dollar Tree 236,240 Mount Nebo Pointe Rd,,Pittsburgh,PA,15237,ALLEGHENY,-80.064651,40.535011,205590
-80.036621,40.547474,Rite Aid 10953,1130 Perry Hwy Ste 35,,Pittsburgh,PA,15237,ALLEGHENY,-80.036621,40.547474,205854
-79.900787,40.458382,Waad Mini Market,7006 Frankstown Ave,,Pittsburgh,PA,15208,ALLEGHENY,-79.900787,40.458382,206037
-79.896103,40.45752,Homewood Quick Pick,7201 Frankstown Ave,,Pittsburgh,PA,15208,ALLEGHENY,-79.896103,40.45752,206041
-80.183594,40.396637,K & D LLC,105 Seminary Ave,Ste 108,Oakdale,PA,15071,ALLEGHENY,-80.183594,40.396637,206774
-79.928688,40.422977,Greenfield Tobacco Shop Llc,4205 Murray Ave,,Pittsburgh,PA,15217,ALLEGHENY,-79.928688,40.422977,206869
-79.82254,40.386124,Walmart Supercenter 2588,100 Wal Mart Drive,,North Versailles,PA,15137,ALLEGHENY,-79.82254,40.386124,207272
-79.822449,40.385948,DOLLAR TREE 1275,110 Walmart Dr,,N Versailles,PA,15137,ALLEGHENY,-79.822449,40.385948,207302
-79.830437,40.36937,HAPPY MINI MART,512 E Pittsburgh McKeesport Blvd,,N Versailles,PA,15137,ALLEGHENY,-79.830437,40.36937,207307
-79.872261,40.365013,Slivas Village Shop N Save,1886 Homeville Rd,,West Mifflin,PA,15122,ALLEGHENY,-79.872261,40.365013,207471
-79.724281,40.621262,COMMUNITY SUPERMARKET,1710 Pacific Ave,,Natrona Heights,PA,15065,ALLEGHENY,-79.724281,40.621262,208449
-79.71022,40.646248,Dollar Tree 3810,28 Highlands Mall,,Natrona Heights,PA,15065,ALLEGHENY,-79.71022,40.646248,209398
-80.256622,40.496025,7-Eleven Store 38587H,1000 Airport Blvd,,Pittsburgh,PA,15231,ALLEGHENY,-80.256622,40.496025,210088
-80.07856,40.650681,Leonard Labriola's Italian Store,112 Northgate Dr,,Warrendale,PA,15086,ALLEGHENY,-80.07856,40.650681,210103
-79.892296,40.320995,RITE AID 1925,210 9th St,,Glassport,PA,15045,ALLEGHENY,-79.892296,40.320995,210169
-79.890511,40.336018,DOLLAR GENERAL  9002,28 Monongahela Ave,,Glassport,PA,15045,ALLEGHENY,-79.890511,40.336018,210476
-79.889977,40.325966,FUZZY'S MARKET,426 6th St,,Glassport,PA,15045,ALLEGHENY,-79.889977,40.325966,210486
-80.021538,40.492413,Center Point,4061 Perrysville Ave,,Pittsburgh,PA,15214,ALLEGHENY,-80.021538,40.492413,211045
-80.000206,40.477821,Edna S Market & Deli,529 Mount Pleasant Rd,,Pittsburgh,PA,15214,ALLEGHENY,-80.000206,40.477821,211060
-80.03228,40.519135,Dollar General 8549,425 Perry Hwy,,West View,PA,15229,ALLEGHENY,-80.03228,40.519135,211799
-80.01812,40.489632,New Trios Market,3900 Perrysville Ave,,Pittsburgh,PA,15214,ALLEGHENY,-80.01812,40.489632,212198
-80.256706,40.497334,7-Eleven 40101,1201 AIRPORT BLVD,,PITTSBURG,PA,15231,ALLEGHENY,-80.256706,40.497334,212205
-80.007576,40.495731,Dave's Bp,4260 Evergreen Rd,,Pittsburgh,PA,15214,ALLEGHENY,-80.007576,40.495731,212207
-79.92704,40.349525,7-Eleven 188,321 Camp Hollow Rd,,West Mifflin,PA,15122,ALLEGHENY,-79.92704,40.349525,213175
-79.835388,40.426727,Kuhn s Market,700 Beulah Rd,,Turtle Creek,PA,15145,ALLEGHENY,-79.835388,40.426727,213192
-79.946579,40.3461,Dollar Tree 218,1099 Mountain View Dr,,West Mifflin,PA,15122,ALLEGHENY,-79.946579,40.3461,213211
-80.201393,40.441887,Diallo Family United Inc,7520 Steubenville Pike,,Oakdale,PA,15071,ALLEGHENY,-80.201393,40.441887,214048
-80.174416,40.444153,Par Mar Store 90,7021 Steubenville Pike,,Oakdale,PA,15071,ALLEGHENY,-80.174416,40.444153,214087
-79.94738,40.344086,Sam's Club 6679,2251 Century Dr,,West Mifflin,PA,15122,ALLEGHENY,-79.94738,40.344086,214264
-79.861015,40.362057,R&M VARIETY STORE,1739 Pennsylvania Ave,,West Mifflin,PA,15122,ALLEGHENY,-79.861015,40.362057,214270
-79.88868,40.393948,Family Dollar Store 2467,1868 Homeville Rd,,West Mifflin,PA,15122,ALLEGHENY,-79.88868,40.393948,214713
-79.937469,40.337536,Aldi 47,239 Clairton Blvd,,West Mifflin,PA,15122,ALLEGHENY,-79.937469,40.337536,214716
-79.87178,40.360252,Uni Mart,2321 Worton Blvd,,West Mifflin,PA,15122,ALLEGHENY,-79.87178,40.360252,214718
-79.943558,40.346218,Century Square Shop N Save,2381 Mountain View Dr,,West Mifflin,PA,15122,ALLEGHENY,-79.943558,40.346218,214999
-80.029587,40.510017,CIO Store 18,5340 Perry Hwy,,Pittsburgh,PA,15229,ALLEGHENY,-80.029587,40.510017,215442
-79.724915,40.623268,Dollar General 13486,1718 Broadview Blvd,,Natrona Heights,PA,15065,ALLEGHENY,-79.724915,40.623268,215456
-79.957481,40.465031,"Lnc#303, Penn Ave LNC#303",4010 Penn Ave,,Pittsburgh,PA,15224,ALLEGHENY,-79.957481,40.465031,215910
-79.932419,40.361671,GETGO 3188,1001 Lebanon Rd,,West Mifflin,PA,15122,ALLEGHENY,-79.932419,40.361671,216135
-79.943527,40.343925,Walmart Supercenter 2281,2351 Century Dr,,West Mifflin,PA,15122,ALLEGHENY,-79.943527,40.343925,216147
-79.781258,40.367809,GetGo 3667,1820 Lincoln Hwy,,North Versailles,PA,15137,ALLEGHENY,-79.781258,40.367809,216301
-79.821281,40.384495,North Versailles Save A Lot,355 Lincoln Hwy,,North Versailles,PA,15137,ALLEGHENY,-79.821281,40.384495,216302
-79.9076,40.361752,BUTTERMILK SHOP N SAVE,4647 Buttermilk Hollow Rd,,West Mifflin,PA,15122,ALLEGHENY,-79.9076,40.361752,216937
-79.951004,40.338432,Giant Eagle 73,9901 Mountain View Dr,,West Mifflin,PA,15122,ALLEGHENY,-79.951004,40.338432,217055
-79.87751,40.381924,Rite Aid 10910,4927 Homeville Rd,,West Mifflin,PA,15122,ALLEGHENY,-79.87751,40.381924,217059
-79.823128,40.405937,CVS Pharmacy 7612,237 Monroeville Ave,,Turtle Creek,PA,15145,ALLEGHENY,-79.823128,40.405937,217060
-79.830719,40.404518,DOLLAR GENERAL STORE  7927,120 Penn Ave,,Turtle Creek,PA,15145,ALLEGHENY,-79.830719,40.404518,217070
-79.834785,40.426041,Par Mar Store 75,710 Brown Ave,,Turtle Creek,PA,15145,ALLEGHENY,-79.834785,40.426041,217166
-79.868668,40.382389,Dollar Tree 4994,1600 Hoffman Blvd,,West Mifflin,PA,15122,ALLEGHENY,-79.868668,40.382389,217183
-79.869904,40.382355,Giant Eagle 29,1356 Hoffman Blvd,,West Mifflin,PA,15122,ALLEGHENY,-79.869904,40.382355,217192
-79.862251,40.362114,Dollar General 3606,1830 Pennsylvania Ave,,West Mifflin,PA,15122,ALLEGHENY,-79.862251,40.362114,217197
-79.732513,40.618511,CVS Pharmacy 5103,1003 California Ave,,Natrona Heights,PA,15065,ALLEGHENY,-79.732513,40.618511,217416
-79.892509,40.324791,Family Dollar 11650,642 Monongahela Ave,,Glassport,PA,15045,ALLEGHENY,-79.892509,40.324791,217450
-79.890808,40.319763,Dollar Tree 6275,937 Ohio Ave,Ste A,Glassport,PA,15045,ALLEGHENY,-79.890808,40.319763,217455
-79.90802,40.359383,Lnc Store 13  Bp Lnc 13,4731 Buttermilk Hollow Rd,,West Mifflin,PA,15122,ALLEGHENY,-79.90802,40.359383,218045
-79.93895,40.345116,Big Lots 1880,7005 Clairton Rd,,West Mifflin,PA,15122,ALLEGHENY,-79.93895,40.345116,218063
-79.859055,40.362118,Sj Retail Services Llc,1704 Pennsylvania Ave,,West Mifflin,PA,15122,ALLEGHENY,-79.859055,40.362118,218073
-79.723885,40.621532,Big Lots 1228,1726 Pacific Ave,,Natrona Heights,PA,15065,ALLEGHENY,-79.723885,40.621532,219391
-79.824356,40.384293,Hr And Sn Llc,505 Lincoln Hwy E,,North Versailles,PA,15137,ALLEGHENY,-79.824356,40.384293,219915
-80.239944,40.440285,IMPERIAL SHOP N SAVE,600 Market Place Dr,,Oakdale,PA,15071,ALLEGHENY,-80.239944,40.440285,219930
-79.923035,40.429745,New Youngs Oriental Market,5813 Forward Ave,,Pittsburgh,PA,15217,ALLEGHENY,-79.923035,40.429745,220046
-79.927635,40.444054,CVS PHARMACY 4152,5600 Wilkins Ave,,Pittsburgh,PA,15217,ALLEGHENY,-79.927635,40.444054,220057
-79.922806,40.435654,GIANT EAGLE 38,1901 Murray Ave,,Pittsburgh,PA,15217,ALLEGHENY,-79.922806,40.435654,220779
-79.895882,40.448402,EAST END FOOD CO-OP,7516 Meade St,,Pittsburgh,PA,15208,ALLEGHENY,-79.895882,40.448402,220897
-79.885017,40.392311,Maya Convenience Store,100 Division St,,West Mifflin,PA,15122,ALLEGHENY,-79.885017,40.392311,221079
-79.938156,40.34819,Sheetz 705,2400 Lebanon Church Rd,,West Mifflin,PA,15122,ALLEGHENY,-79.938156,40.34819,221105
-79.884956,40.455254,Brooklyn 2 Market Inc,7926 Frankstown Ave,,Pittsburgh,PA,15221,ALLEGHENY,-79.884956,40.455254,221287
-79.885498,40.442406,Dhale Market Inc,811 Wood St,,Pittsburgh,PA,15221,ALLEGHENY,-79.885498,40.442406,221291
-79.867775,40.449059,Cousins Market,1694 Laketon Rd,,Pittsburgh,PA,15221,ALLEGHENY,-79.867775,40.449059,221309
-79.861649,40.425652,Just Harvest - Forest Hills Farmers Market,1840 Ardmore Blvd,,Pittsburgh,PA,15221,ALLEGHENY,-79.861649,40.425652,221311
-79.880447,40.385887,Super One Convenience,4432 Greensprings Ave,,West Mifflin,PA,15122,ALLEGHENY,-79.880447,40.385887,221656
-79.824615,40.404022,Keystone Mini Mart Inc,932 Penn Ave,,Turtle Creek,PA,15145,ALLEGHENY,-79.824615,40.404022,221659
-79.871895,40.367657,Tiger Mart,5700 Homeville Rd,,West Mifflin,PA,15122,ALLEGHENY,-79.871895,40.367657,221667
-79.826088,40.404949,Penn Tobacco Outlet,705 Penn Ave,,Turtle Creek,PA,15145,ALLEGHENY,-79.826088,40.404949,221669
-79.938957,40.345139,Rebel 910,6999 Clairton Rd,,West Mifflin,PA,15122,ALLEGHENY,-79.938957,40.345139,221670
-79.868843,40.390274,Speedway 2916,4315 Kennywood Blvd,,West Mifflin,PA,15122,ALLEGHENY,-79.868843,40.390274,221674
-79.818886,40.408905,7-eleven Store 2701- 36121B,423 James St,,Turtle Creek,PA,15145,ALLEGHENY,-79.818886,40.408905,221679
-79.894196,40.376308,Crossroad Sunoco Neighbourhood Market,4600 Homestead Duquesne Rd,,West Mifflin,PA,15122,ALLEGHENY,-79.894196,40.376308,221680
-79.818611,40.412334,Karim Food Inc,557 James St,,Turtle Creek,PA,15145,ALLEGHENY,-79.818611,40.412334,221691
-80.056587,40.464981,Family Dollar Store 775,152 McKees Rocks Plz,,MC Kees Rocks,PA,15136,ALLEGHENY,-80.056587,40.464981,222658
-80.133972,40.452034,CVS Pharmacy 258,5703 Steubenville Pike,,MC Kees Rocks,PA,15136,ALLEGHENY,-80.133972,40.452034,222673
-80.027809,40.289986,RITE AID 1589,6375 Library Rd,,South Park,PA,15129,ALLEGHENY,-80.027809,40.289986,222881
-79.902061,40.545757,Quick Pizza & Hogie,3565 Harts Run Rd,,Pittsburgh,PA,15238,ALLEGHENY,-79.902061,40.545757,223856
-79.943985,40.408813,Sam's Neighborhood Market,4942 Second  Ave,Floor 1,Pittsburgh,PA,15207,ALLEGHENY,-79.943985,40.408813,224182
-80.000206,40.4426,7-Eleven 36145H,643 Liberty Ave,,Pittsburgh,PA,15222,ALLEGHENY,-80.000206,40.4426,224289
-80.100464,40.475693,United Brother Llc,1761 Pine Hollow Rd,,McKees Rocks,PA,15136,ALLEGHENY,-80.100464,40.475693,224368
-80.130737,40.481182,Rossi's Market,64 Forest Grove Rd,,Coraopolis,PA,15108,ALLEGHENY,-80.130737,40.481182,224594
-80.086838,40.655724,7-Eleven 36144H,95 Warrendale Bayne Rd,,Warrendale,PA,15086,ALLEGHENY,-80.086838,40.655724,225069
-80.026672,40.468643,Kuhn's Market 3,1130 Highwood St,,Pittsburgh,PA,15212,ALLEGHENY,-80.026672,40.468643,225105
-79.893707,40.391281,Munhall Gas,2907 Homestead Duquesne Rd,,Homestead,PA,15120,ALLEGHENY,-79.893707,40.391281,225615
-79.866219,40.383099,Dollar General Store 4355,351 Hoffman Blvd,,Duquesne,PA,15110,ALLEGHENY,-79.866219,40.383099,226431
-79.943611,40.408428,Go Go's Market,5001 2nd Ave,,Pittsburgh,PA,15207,ALLEGHENY,-79.943611,40.408428,227018
-79.954247,40.436367,A & K Convenience Store Llc,3459 Ward St,,Pittsburgh,PA,15213,ALLEGHENY,-79.954247,40.436367,227177
-79.887077,40.293232,Clairton Mini Mart Inc,540 Saint Clair Ave,,Clairton,PA,15025,ALLEGHENY,-79.887077,40.293232,227178
-80.074867,40.503696,Ben Avon Mini Mart,200 Division Ave,,Pittsburgh,PA,15202,ALLEGHENY,-80.074867,40.503696,227210
-79.9216,40.299698,Dollar General 18694,1517 State Route 51,,Clairton,PA,15025,ALLEGHENY,-79.9216,40.299698,228226
-79.770889,40.55418,JOHN & GERRY'S FRUIT MKT,2850 Freeport Rd,,Springdale,PA,15144,ALLEGHENY,-79.770889,40.55418,228228
-79.80867,40.337402,White Oak Giant Eagle,2001 Lincoln Way,,White Oak,PA,15131,ALLEGHENY,-79.80867,40.337402,228398
-79.955414,40.436619,Groceria Merante,3454 Bates St,,Pittsburgh,PA,15213,ALLEGHENY,-79.955414,40.436619,228920
-79.972191,40.450806,Samba Market,2520 Bedford Ave,,Pittsburgh,PA,15219,ALLEGHENY,-79.972191,40.450806,228923
-80.056,40.487545,Us Gas,4215 Ohio River Blvd,,Pittsburgh,PA,15202,ALLEGHENY,-80.056,40.487545,229027
-80.059196,40.497433,Cogo's 1493,620 Lincoln Ave,,Bellevue,PA,15202,ALLEGHENY,-80.059196,40.497433,229142
-79.890945,40.309601,Unimart,551 N State St,,Clairton,PA,15025,ALLEGHENY,-79.890945,40.309601,229185
-79.875786,40.299042,Speedway 2926,222 State St,,Clairton,PA,15025,ALLEGHENY,-79.875786,40.299042,229186
-79.889442,40.292252,Dollar General 11536,620 Worthington Ave,,Clairton,PA,15025,ALLEGHENY,-79.889442,40.292252,229199
-80.05278,40.382584,7-eleven Store #40135a 40135A,339 Cochran Rd,,Pittsburgh,PA,15228,ALLEGHENY,-80.05278,40.382584,229308
-79.85157,40.372013,J & S Food Mart,625 W Grant Ave,,Duquesne,PA,15110,ALLEGHENY,-79.85157,40.372013,230134
-79.980499,40.443523,Family Dollar Store 7199,1917 Centre Ave,,Pittsburgh,PA,15219,ALLEGHENY,-79.980499,40.443523,230235
-79.979271,40.438339,Ak&Ak United Inc dba Ak Schwartz Market,1901 5th Ave,,Pittsburgh,PA,15219,ALLEGHENY,-79.979271,40.438339,230931
-80.061142,40.491482,Pit Stop Express,4501 Ohio River Blvd,,Pittsburgh,PA,15202,ALLEGHENY,-80.061142,40.491482,231558
-80.058571,40.497025,Family Dollar Store 5518,607 Lincoln Ave,,Bellevue,PA,15202,ALLEGHENY,-80.058571,40.497025,231561
-79.982201,40.367634,Dollar Tree 1012,324 Towne Square Way,,Brentwood,PA,15227,ALLEGHENY,-79.982201,40.367634,231786
-79.984116,40.367764,Nepali Bazaar Llc,4040 Saw Mill Run Blvd,,Pittsburgh,PA,15227,ALLEGHENY,-79.984116,40.367764,231787
-79.982216,40.373447,Pk Mart & Asian Grocery,3406 Saw Mill Run Blvd,,Pittsburgh,PA,15227,ALLEGHENY,-79.982216,40.373447,231788
-79.977524,40.383442,Z&a Enterprise Llc N/A,2800 Brownsville Rd,,Pittsburgh,PA,15227,ALLEGHENY,-79.977524,40.383442,231789
-79.991417,40.378273,Baraka International Market Inc. ,2740 Saw Mill Run Blvd,,Pittsburgh,PA,15227,ALLEGHENY,-79.991417,40.378273,231790
-79.984848,40.366058,Euro Mart,4150 Saw Mill Run Blvd,,Pittsburgh,PA,15227,ALLEGHENY,-79.984848,40.366058,231791
-79.983681,40.376118,7-eleven Store #40121a 40121A,3299 Saw Mill Run Blvd,,Pittsburgh,PA,15227,ALLEGHENY,-79.983681,40.376118,231792
-79.961235,40.356613,Baldwin Farmer's Market,41 Macek Dr,,Pittsburgh,PA,15227,ALLEGHENY,-79.961235,40.356613,231793
-80.133705,40.512531,Speedway 2910,5701 Grand Ave,,Pittsburgh,PA,15225,ALLEGHENY,-80.133705,40.512531,231974
-79.981911,40.372643,Getgo 3616,3601 Saw Mill Run Blvd,,Pittsburgh,PA,15227,ALLEGHENY,-79.981911,40.372643,231975
-79.982178,40.37122,Dollar General 12185,3750 Saw Mill Run Blvd,,Pittsburgh,PA,15227,ALLEGHENY,-79.982178,40.37122,231976
-79.96801,40.363575,Whitehall Center,1406 Radford Rd,,Pittsburgh,PA,15227,ALLEGHENY,-79.96801,40.363575,231977
-79.976547,40.381481,Monal Bazaar,2950 Brownsville Rd,,Pittsburgh,PA,15227,ALLEGHENY,-79.976547,40.381481,233051
-79.975861,40.374413,B Express Mart 2,3518 Brownsville Rd,,Pittsburgh,PA,15227,ALLEGHENY,-79.975861,40.374413,233052
-79.977356,40.383789,"Juba Grocery Store, Llc",2721 Brownsville Rd,,Pittsburgh,PA,15227,ALLEGHENY,-79.977356,40.383789,233053
-79.965088,40.389996,Dollar General Store 18057,93 Joseph St,,Pittsburgh,PA,15227,ALLEGHENY,-79.965088,40.389996,233054
-79.824921,40.311306,American Natural 9,5738 Smithfield St,,McKeesport,PA,15135,ALLEGHENY,-79.824921,40.311306,233058
-79.825462,40.311054,Dollar General 7091,5724 Smithfield St,,McKeesport,PA,15135,ALLEGHENY,-79.825462,40.311054,233059
-79.923668,40.461014,CVS Pharmacy 4085,6100 Penn Ave,,Pittsburgh,PA,15206,ALLEGHENY,-79.923668,40.461014,233060
-79.928185,40.458942,WHOLE FOODS MARKET 10181,5880 Centre Ave,,Pittsburgh,PA,15206,ALLEGHENY,-79.928185,40.458942,233061
-79.934601,40.458149,Rite Aid 10924,5633 Baum Blvd,,Pittsburgh,PA,15206,ALLEGHENY,-79.934601,40.458149,233062
-79.923965,40.461494,Sunshine Snacks & Smokes,6015 Penn Ave,,Pittsburgh,PA,15206,ALLEGHENY,-79.923965,40.461494,233063
-79.908569,40.458553,"Lnc#302, Frenkstown LNC#302",6680 Frankstown Ave,,Pittsburgh,PA,15206,ALLEGHENY,-79.908569,40.458553,233064
-79.928749,40.462753,Whole Foods Market 10694,5700 Penn Avenue,,Pittsburgh,PA,15206,ALLEGHENY,-79.928749,40.462753,233065
-79.895844,40.468678,Brooklyn Foodmart Corporation,1500 Lincoln Ave,,Pittsburgh,PA,15206,ALLEGHENY,-79.895844,40.468678,233066
-79.925804,40.485233,Chislett Food Market,1748 Chislett St,,Pittsburgh,PA,15206,ALLEGHENY,-79.925804,40.485233,233067
-79.914169,40.465565,La Grocery West Indian American ,511 Larimer Ave,,Pittsburgh,PA,15206,ALLEGHENY,-79.914169,40.465565,233068
-79.915649,40.464596,Just Harvest - Larimer Farmers Market,311 Larimer Ave,,Pittsburgh,PA,15206,ALLEGHENY,-79.915649,40.464596,233069
-79.896912,40.46822,Fadinco Mini Mart Corporation,1407 Lincoln Ave,,Pittsburgh,PA,15206,ALLEGHENY,-79.896912,40.46822,233070
-79.889992,40.461655,Sams Market Inc,7356 Stranahan St,,Pittsburgh,PA,15206,ALLEGHENY,-79.889992,40.461655,233071
-79.900467,40.464329,Family Dollar 11553,1111 Lincoln Ave,,Pittsburgh,PA,15206,ALLEGHENY,-79.900467,40.464329,233072
-79.929451,40.465454,Farm Fresh Market Of Pittsburgh Inc,226 N Negley Ave,,Pittsburgh,PA,15206,ALLEGHENY,-79.929451,40.465454,233073
-79.932533,40.458771,CIO Store 17,5735 Baum Blvd,,Pittsburgh,PA,15206,ALLEGHENY,-79.932533,40.458771,233074
-79.923409,40.461559,Dollar General 19267,123 N Sheridan Ave,,East Liberty,PA,15206,ALLEGHENY,-79.923409,40.461559,233075
-79.921524,40.464432,J L Kennedy Meat Stand,344 N Sheridan Ave,,Pittsburgh,PA,15206,ALLEGHENY,-79.921524,40.464432,233076
-79.924362,40.461319,Dollar Tree 5840,6009 Penn Ave,,Pittsburgh,PA,15206,ALLEGHENY,-79.924362,40.461319,233077
-79.934723,40.458138,Aldi 80,5631 Baum Blvd,,Pittsburgh,PA,15206,ALLEGHENY,-79.934723,40.458138,233078
-79.920929,40.459026,Giant Eagle 17,6320 Shakespeare St,,Pittsburgh,PA,15206,ALLEGHENY,-79.920929,40.459026,233079
-79.92141,40.460236,Target 2757,6231 Penn Ave,,Pittsburgh,PA,15206,ALLEGHENY,-79.92141,40.460236,233080
-79.919601,40.475685,Bryant Street Market,5901 Bryant Street,,Pittsburgh,PA,15206,ALLEGHENY,-79.919601,40.475685,233081
-79.919426,40.458904,Trader Joe's 638,6343 Penn Ave,,Pittsburgh,PA,15206,ALLEGHENY,-79.919426,40.458904,233082
-79.926163,40.471687,Stanton Negley Drug Company,804 N Negley Ave,,Pittsburgh,PA,15206,ALLEGHENY,-79.926163,40.471687,233083
-79.926949,40.486668,RITE AID 3412,1800 Morningside Ave,,Pittsburgh,PA,15206,ALLEGHENY,-79.926949,40.486668,233441
-79.93261,40.464123,LE'S SUPER GK,5482 Penn Ave,,Pittsburgh,PA,15206,ALLEGHENY,-79.93261,40.464123,233442
-79.926811,40.459324,WALGREENS 09281,5956 Penn Cir S,Ste 1,Pittsburgh,PA,15206,ALLEGHENY,-79.926811,40.459324,233443
-79.991722,40.422237,DAILY MART,1125 Arlington Ave,,Pittsburgh,PA,15203,ALLEGHENY,-79.991722,40.422237,235022
-79.980621,40.427567,GETGO 3117,117 S 18th St,,Pittsburgh,PA,15203,ALLEGHENY,-79.980621,40.427567,235025
-79.978363,40.428665,Rite Aid 10921,1915 E Carson St,,Pittsburgh,PA,15203,ALLEGHENY,-79.978363,40.428665,235028
-79.988274,40.428524,Bp Carson Street N/A,1006 E Carson St,,Pittsburgh,PA,15203,ALLEGHENY,-79.988274,40.428524,235031
-79.973145,40.427517,Sweet Panda Asian Market,114 S 23rd St,,Pittsburgh,PA,15203,ALLEGHENY,-79.973145,40.427517,235037
-79.967392,40.427162,Aldi 79,2628 East Carson St,,Pittsburgh,PA,15203,ALLEGHENY,-79.967392,40.427162,235038
-79.958725,40.421555,GetGo 3003,3247 E Carson St,,Pittsburgh,PA,15203,ALLEGHENY,-79.958725,40.421555,235039
-79.977142,40.430344,Family Dollar Store 5250,2020 Wharton St,,Pittsburgh,PA,15203,ALLEGHENY,-79.977142,40.430344,235040
-79.970894,40.428188,Coen Markets 1229,2401 E Carson St,,Pittsburgh,PA,15203,ALLEGHENY,-79.970894,40.428188,235041
-79.973183,40.426464,RITE AID 0273,2300 Jane St,,Pittsburgh,PA,15203,ALLEGHENY,-79.973183,40.426464,235042
-79.976952,40.430408,Giant Eagle 61,2021 Wharton St,,Pittsburgh,PA,15203,ALLEGHENY,-79.976952,40.430408,235043
-79.98938,40.428776,Coen Markets 1236,925 E Carson St,,Pittsburgh,PA,15203,ALLEGHENY,-79.98938,40.428776,235044
-79.978188,40.385017,Hanini's Market,2625 Brownsville Rd,,Pittsburgh,PA,15227,ALLEGHENY,-79.978188,40.385017,235137
-79.967728,40.36401,7-Eleven Store 2701 36124B,1400 Radford Rd,,Pittsburgh,PA,15227,ALLEGHENY,-79.967728,40.36401,235151
-79.947281,40.613914,Sheetz 123,5300 William Flynn Hwy,,Gibsonia,PA,15044,ALLEGHENY,-79.947281,40.613914,235437
-79.940002,40.635326,Sunoco Gibsonia N/A,5600 William Flynn Hwy,,Gibsonia,PA,15044,ALLEGHENY,-79.940002,40.635326,235444
-80.01429,40.623089,Target Stores 2262,600 Grandview Dr,,Gibsonia,PA,15044,ALLEGHENY,-80.01429,40.623089,235520
-79.939026,40.635475,Marathon Save N Go,5610 William Flynn Hwy,,Gibsonia,PA,15044,ALLEGHENY,-79.939026,40.635475,235528
-79.941368,40.635731,GIBSONIA GIANT EAGLE,400 Northtowne Sq,,Gibsonia,PA,15044,ALLEGHENY,-79.941368,40.635731,235533
-79.888435,40.629856,Dollar General 19485,289 Oak Rd,,Gibsonia,PA,15044,ALLEGHENY,-79.888435,40.629856,235534
-79.944672,40.619602,Route 8 Shop N Save,5375 William Flynn Hwy,,Gibsonia,PA,15044,ALLEGHENY,-79.944672,40.619602,235539
-79.994194,40.594669,7-eleven Store 36159A,1350 Wildwood Rd,,Gibsonia,PA,15044,ALLEGHENY,-79.994194,40.594669,235545
-79.944115,40.62225,Dollar Tree 1831,400 Walmart Dr,# B1,Gibsonia,PA,15044,ALLEGHENY,-79.944115,40.62225,235551
-79.942825,40.625927,Rite Aid 07832,4155 Ewalt Rd,,Gibsonia,PA,15044,ALLEGHENY,-79.942825,40.625927,235557
-79.937866,40.642239,GetGo 3691,4099 Grandview Dr,,Gibsonia,PA,15044,ALLEGHENY,-79.937866,40.642239,235646
-79.926468,40.60532,Wagners Market,4978 Middle Rd,,Gibsonia,PA,15044,ALLEGHENY,-79.926468,40.60532,235650
-79.944855,40.621227,Walmart 2603,300 Walmart Dr,,Gibsonia,PA,15044,ALLEGHENY,-79.944855,40.621227,235655
-80.015495,40.456188,RITE AID 3459,802 Pennsylvania Ave,,Pittsburgh,PA,15233,ALLEGHENY,-80.015495,40.456188,235925
-80.019157,40.451183,7-ELEVEN 36140,1001 Western Ave,,Pittsburgh,PA,15233,ALLEGHENY,-80.019157,40.451183,235926
-80.016212,40.455967,North Side Valero,820 Pennsylvania Ave,,Pittsburgh,PA,15233,ALLEGHENY,-80.016212,40.455967,235927
-80.014885,40.454773,Dollar General 19008,1215 Brighton Rd,,Pittsburgh,PA,15233,ALLEGHENY,-80.014885,40.454773,235928
-79.988205,40.377949,Noble Asian Shwe Myanmar Grocery Store Llc,2830 Clairton Blvd,,Pittsburgh,PA,15227,ALLEGHENY,-79.988205,40.377949,237195
-79.982513,40.367905,Giant Eagle 93,600 Towne Square Way,,Pittsburgh,PA,15227,ALLEGHENY,-79.982513,40.367905,237196
-79.975128,40.370502,"Lnc-store no.11, Brentwood LNC 11",3767 Brownsville Rd,,Pittsburgh,PA,15227,ALLEGHENY,-79.975128,40.370502,237197
-79.983345,40.368687,Nimnim Llc,4010 Saw Mill Run Blvd,,Pittsburgh,PA,15227,ALLEGHENY,-79.983345,40.368687,237198
-79.977432,40.383907,Carrick Pharmacy,2717 Brownsville Rd,,Pittsburgh,PA,15227,ALLEGHENY,-79.977432,40.383907,237199
-79.90271,40.385883,Main Street Market,3417 Main St,,Homestead,PA,15120,ALLEGHENY,-79.90271,40.385883,244529
-79.90963,40.408012,Jacks Market & Beauty Supplies Inc,245 E 8th Ave,,Homestead,PA,15120,ALLEGHENY,-79.90963,40.408012,244530
-79.904015,40.409061,Family Dollar Store 5940,715 E 8th Ave,,Homestead,PA,15120,ALLEGHENY,-79.904015,40.409061,244531
-79.888206,40.401485,Lizzies Dairy On Whitaker,106 Whitaker St,,Homestead,PA,15120,ALLEGHENY,-79.888206,40.401485,244532
-79.917999,40.402348,Par Mar Store 88,431 W 7th Ave,,Homestead,PA,15120,ALLEGHENY,-79.917999,40.402348,244533
-79.88253,40.403496,Bob's Autotorium Inc,1408 River Rd,,Homestead,PA,15120,ALLEGHENY,-79.88253,40.403496,244534
-79.903984,40.409012,Dollar Tree 6092,713 E 8th Ave,,Homestead,PA,15120,ALLEGHENY,-79.903984,40.409012,244535
-79.909561,40.412579,Get Go 3379,430 E Waterfront Dr,,Homestead,PA,15120,ALLEGHENY,-79.909561,40.412579,244536
-79.911819,40.407085,ALDI 69097 69097,127 E 7th Ave,,Homestead,PA,15120,ALLEGHENY,-79.911819,40.407085,244537
-79.901871,40.409687,Big Lots 1993,612 William Marks Way,,Homestead,PA,15120,ALLEGHENY,-79.901871,40.409687,244538
-79.902596,40.397427,American Natural 12,103 E 22nd Ave,,Homestead,PA,15120,ALLEGHENY,-79.902596,40.397427,244539
-79.90274,40.386551,Cogos 1780,3402 Main St,,Homestead,PA,15120,ALLEGHENY,-79.90274,40.386551,244540
-79.910217,40.407314,Homestead Food Mart,238 E 8th Ave,,Homestead,PA,15120,ALLEGHENY,-79.910217,40.407314,244541
-79.920181,40.403896,Costco Wholesale 0649,501 Waterfront Dr W,,West Homestead,PA,15120,ALLEGHENY,-79.920181,40.403896,244542
-79.906471,40.403133,Target Store 1253,360 E WATERFORD DR,,Homestead,PA,15120,ALLEGHENY,-79.906471,40.403133,244543
-79.908386,40.408356,DOLLAR GENERAL  9694,325 E 8th Ave,,Homestead,PA,15120,ALLEGHENY,-79.908386,40.408356,244544
-79.912804,40.405575,WALGREENS 09674,133 W 8th Ave,,Homestead,PA,15120,ALLEGHENY,-79.912804,40.405575,244545
-79.910011,40.412422,GIANT EAGLE 6379,420 Waterfront Dr E,,Homestead,PA,15120,ALLEGHENY,-79.910011,40.412422,244546
-79.909271,40.388477,Coen Markets 1218,3439 W Run Rd,,West Homestead,PA,15120,ALLEGHENY,-79.909271,40.388477,244547
-79.901901,40.409134,RITE AID 4682,100 William Marks Way,,Munhall,PA,15120,ALLEGHENY,-79.901901,40.409134,244548
